region,district,ward,latitude,longitude,SACCO_name,SACCO_yr_started,linked_mob_fin_services,tigo_pesa,m_pesa,ezy_pesa,airtel_cash,other_mob_fin_services,other_mob_fin_services_detail
Rukwa,Sumbawanga Urban,Katandala,-7.95806,31.61371,2 Ways Saccos Ltd,22/04/2009,,,,,,,
Arusha,Arusha,Kimandolu,-3.36767,36.70687,Aar Workers Saccos,07/12/2010,,,,,,,
Mara,Bunda,Bunda,-2.10549,33.08824,Abajuni Saccos,27/04/2013,,,,,,,
Tabora,Tabora Urban,Kanyenye,-5.02299,32.80904,Acs,12/12/2008,,,,,,,
Arusha,Arusha,Kati,-3.36985,36.69519,Acu Saccos,03/11/2007,,,,,,,
Manyara,Babati,Dareda,-4.23449,35.51444,Adada Saccos,01/07/1998,,,,,,,
Mbeya,Mbeya Urban,Iyunga,-8.93476,33.41507,Afri Savings Saccos Ltd,03/10/1995,,,,,,,
Tabora,Tabora Urban,Kanyenye,-5.02394,32.80162,Afric,14/06/2012,,,,,,,
Tabora,Tabora Urban,Kanyenye,-5.02377,32.81,Afya Bora Project,03/08/2008,,,,,,,
Tabora,Tabora Urban,Cheyo,-5.03032,32.81616,Afya Jamii,07/10/2012,,,,,,,
Mbeya,Chunya,Itewe,-8.52097,33.42103,Afya Saccos,03/10/2004,,,,,,,
Dodoma,Dodoma Urban,Madukani,-6.18235,35.7446,Afya Saccos,17/04/2003,,,,,,,
Manyara,Hanang,Katesh,-4.51733,35.38953,Afya Saccos (Katesh),08/01/2005,,,,,,,
Mbeya,Kyela,Kyela Mjini,-9.6036,33.86916,Afya Saccos Kyela Hospital,22/10/2007,,,,,,,
Dar es Salaam,Kinondoni,Ubungo,-6.79033,39.21287,Agape Saccos,30/05/2005,,,,,,,
Shinyanga,Meatu,Mwanhuze,-3.52566,34.31258,Akiba Na Mikopo,09/12/2006,,,,,,,
Kagera,Bukoba Rural,Maruku,-1.40889,31.77799,Akiba Saccos Ltd,12/02/2008,,,,,,,
Shinyanga,Kahama,Segese,-3.53071,32.41778,Akina Mama Saccos,21/09/2012,,,,,,,
Tabora,Tabora Urban,Cheyo,-5.03519,32.81997,Alpha,16/10/2012,Yes,,Yes,,,,
Ruvuma,Namtumbo,Namtumbo,-10.46584,36.13561,Amacha Credit,11/11/2013,,,,,,,
Dodoma,Kondoa,Chandama,-5.14694,36.16906,Amani Group Sacoss,26/01/2009,,,,,,,
Dar es Salaam,Kinondoni,Kunduchi,-6.68714,39.20388,Amani Saccos,05/08/2002,Yes,Yes,Yes,,,,
Dodoma,Mpwapwa,Mpwapwa Mjini,-6.34714,36.48707,Amani Saccos,14/10/2010,,,,,,,
Shinyanga,Kahama,Isagehe,-3.87418,32.76338,Amani Saccos,03/10/2007,,,,,,,
Tabora,Tabora Urban,Kanyenye,-5.02569,32.8149,Ameli Sacco,08/09/2005,,,,,,,
Kagera,Muleba,Izigo,-1.62757,31.71503,Amka Saccos Ltd,25/01/2013,,,,,,,
Mbeya,Mbeya Urban,Mwakibete,-8.91637,33.48834,Amkeni Sakosi,11/10/2009,,,,,,,
Lindi,Lindi Urban,Msinjahili,-10.00074,39.7158,Amkeniwomen Sacos,21/08/2006,,,,,,,
Arusha,Arusha,Kati,-3.36921,36.69395,Amsd Saccos,30/08/2002,,,,,,,
Dodoma,Kondoa,Goima,-5.10958,36.00597,Amsha Saccos,07/03/2009,,,,,,,
Iringa,Njombe,Njombe Mjini,-9.34983,34.77071,Anglican Diocese Of South West Tanganyika Saccos,14/05/2012,,,,,,,
Arusha,Arusha,Levolosi,-3.37257,36.69289,Ansa Saccos,14/10/2009,,,,,,,
Manyara,Mbulu,Bargish,-3.79554,35.55024,Antsi Saccos,12/11/2009,,,,,,,
Arusha,Arusha,Kaloleni,-3.37949,36.69031,Ar Women In Business,06/01/2003,,,,,,,
Tabora,Tabora Urban,Cheyo,-5.0346,32.81851,Arisa,08/10/2013,,,,,,,
Arusha,Arusha,Sekei,-3.36401,36.70905,Arumeru Teachers Saccos Ltd,15/10/2009,,,,,,,
Arusha,Arusha,Levolosi,-3.37264,36.69265,Arusha Almc Staff Saccos,09/10/2009,,,,,,,
Arusha,Arusha,Kati,-3.38142,36.70878,Arusha Club Saccos Ltd,01/12/2011,Yes,,Yes,,,,
Arusha,Arusha,Kati,-3.38398,36.71178,Arusha Cosmopolitian Saccos,25/06/1999,,,,,,,
Arusha,Arusha,Levolosi,-3.37088,36.69475,Arusha Kikikoma Saccos,16/10/2010,,,,,,,
Arusha,Arusha,Kati,-3.37046,36.69581,Arusha Municipal Workers SACCO,02/10/1989,,,,,,,
Arusha,Arusha,Sekei,-3.36409,36.70919,Arusha Meru Woman Saccos,01/11/2008,Yes,,Yes,,,,
Arusha,Arusha,Kati,-3.37188,36.68157,Arusha Modern Saccos,24/02/2014,,,,,,,
Arusha,Arusha,Kati,-3.3745,36.69332,Arusha Mshikamano,25/11/2006,,,,,,,
Arusha,Arusha,Kati,-3.38362,36.71117,Arusha Municipal Saccos,30/10/2008,,,,,,,
Arusha,Arusha,Kati,-3.36994,36.69523,Arusha Teachers Saccos,01/11/1997,,,,,,,
Arusha,Arusha,Levolosi,-3.3722,36.68299,Auwsa Saccos,25/04/2000,,,,,,,
Manyara,Babati,Babati,-4.21303,35.74681,Babati Saccos,15/08/2006,,,,,,,
Pwani,Bagamoyo,Dunda,-6.44553,38.90879,Bagamoyo Rutheran Church Saccos,28/06/2000,,,,,,,
Mbeya,Rungwe,Bagamoyo,-9.25279,33.64303,Bagamoyo Saccos,17/02/2007,,,,,,,
Kilimanjaro,Moshi Rural,Arusha Chini,-3.36178,36.69702,Balbera Saccos,26/08/2012,,,,,,,
Kagera,Bukoba Rural,Kaagya,-1.2087,31.41121,Baraka Saccos Ltd,24/02/1997,,,,,,,
Shinyanga,Bariadi,Bariadi,-2.79869,33.98878,Bariad Kurugenzi Saccos,12/10/2006,,,,,,,
Shinyanga,Bariadi,Bariadi,-2.79915,33.98866,Bariadi Teacher'S Savings,11/06/2006,,,,,,,
Tabora,Tabora Urban,Gongoni,-5.01667,32.81387,Basu Saccos,04/09/2009,,,,,,,
Mbeya,Kyela,Matema,-9.43207,33.97704,Bateko Saccos - Mababu Village,25/09/2003,,,,,,,
Mwanza,Misungwi,Misungwi,-2.83298,33.07871,Bayport Financial Service,04/01/2014,,,,,,,
Dodoma,Kondoa,Kondoa Mjini,-4.90658,35.78799,Bayport Financial Services,15/10/2010,,,,,,,
Singida,Singida Urban,Ipembe,-4.82099,34.74926,Bdg Saccos Ltd,14/02/2009,,,,,,,
Tabora,Tabora Urban,Mbugani,-5.01905,32.80474,Benie Sacco,19/08/2007,,,,,,,
Kigoma,Kigoma Urban,Kigoma town,-4.87742,29.63991,Bethlehemu Saccos Ltd,23/09/2012,,,,,,,
Mbeya,Rungwe,Bulyaga,-9.25846,33.64273,Bewatu Saccos,10/06/2005,,,,,,,
Arusha,Arumeru,Kiranyi,-3.36503,36.69809,Bhunumbundi,04/11/2009,,,,,,,
Shinyanga,Shinyanga Urban,Shinyanga Mjini,-3.6707,33.4244,Biashara Saccos,16/03/2011,,,,,,,
Shinyanga,Shinyanga Urban,Shinyanga Mjini,-3.67067,33.42447,Biashara Saccos Ltd,09/04/2012,,,,,,,
Dodoma,Dodoma Urban,Madukani,-6.18038,35.74658,Biashara Savings And Credit Cooperative Society,10/12/2005,,,,,,,
Kagera,Biharamulo,Katende,-2.63574,31.31082,Biharamulo Women Saccos,24/06/2006,Yes,,Yes,,,,
Kagera,Biharamulo,Biharamulo Mjini,-2.63626,31.31255,Biwosa Saccos Ltd,17/01/2011,Yes,Yes,,,,,
Kigoma,Kibondo,Kakonko,-3.28196,30.96507,Bodaboda Saccos,04/07/2013,,,,,,,
Dodoma,Kondoa,Kolo,-4.81666,35.81285,Bolisa Saccos,20/10/2006,,,,,,,
Dodoma,Dodoma Urban,Viwandani,-6.17891,35.74999,Boma Kuu Saccos,14/06/2006,,,,,,,
Mbeya,Rungwe,Bulyaga,-9.26022,33.6475,Bomani Saccos,20/02/2011,,,,,,,
Mbeya,Rungwe,Kandete,-9.14841,33.79238,Bombaga Vicoba Group,15/09/2010,,,,,,,
Manyara,Babati,Bonga,-4.34921,35.73733,Bonga Group Saccos,08/11/2005,,,,,,,
Arusha,Arusha,Kati,-3.3711,36.69411,Bot Saccos,11/09/1989,,,,,,,
Arusha,Arumeru,Nkoanrua,-3.34414,36.77677,Brac,08/12/2013,,,,,,,
Arusha,Arusha,Kimandolu,-3.3692,36.73102,Brac Kimandolu Branch,10/06/2012,,,,,,,
Kagera,Bukoba Urban,Rwanishenye,-1.32237,31.79177,Brac Rwamishenyi Office,10/12/2010,,,,,,,
Arusha,Arumeru,Usa River,-3.36676,36.85774,Brac Sacco,10/07/2011,,,,,,,
Arusha,Arusha,Kati,-3.36938,36.69242,Braeburn Staff Saccos,13/08/2004,,,,,,,
Kagera,Muleba,Mubunda,-1.94588,31.51645,Bubonero Saccos Ltd,08/07/2006,,,,,,,
Kagera,Muleba,Ijumbi,-1.74781,31.62394,Buchwaihembe Saccos Ltd,10/01/2012,,,,,,,
Mbeya,Kyela,Ikolo,-9.60662,33.85141,Bugema Saccos,18/08/2007,,,,,,,
Kagera,Bukoba Urban,Bakoba,-1.3375,31.81488,Bukoba Saccos Ltd,25/10/2010,,,,,,,
Arusha,Arusha,Elerai,-3.37039,36.69489,Bulka Saccos,14/11/2003,,,,,,,
Mbeya,Rungwe,Bulyaga,-9.25742,33.64738,Bulyaga Saccos Tukuyu Mjini,20/02/1998,,,,,,,
Dar es Salaam,Kinondoni,Bunju,-6.61951,39.11348,Bunju Comminite Saccos,14/11/2006,Yes,,Yes,,Yes,,
Kagera,Bukoba Urban,Birere,-1.33208,31.80772,Burete Saccos Ltd,15/01/2012,,,,,,,
Mbeya,Kyela,Busole,-9.51857,33.7475,Busale Saccos Ltd,02/03/2007,,,,,,,
Dodoma,Kondoa,Busi,-4.8506,36.05274,Busi Saccos Ltd,18/07/2009,,,,,,,
Tabora,Tabora Urban,Gongoni,-5.01907,32.80484,Bwanakazi,20/11/2010,Yes,Yes,Yes,,Yes,,
Dar es Salaam,Kinondoni,Kimara,-6.79469,39.15259,Bwawani Saccos,08/04/2010,,,,,,,
Dodoma,Dodoma Rural,Buigiri,-6.09983,36.03875,Bwigili Sacoc,18/09/2010,,,,,,,
Shinyanga,Kahama,Malunga,-3.82219,32.59765,Cargo Saccos,01/03/2013,,,,,,,
Arusha,Arusha,Kimandolu,-3.38385,36.71098,Carvary Bathel Saccos,08/01/2006,,,,,,,
Dodoma,Kongwa,Mkoka,-5.81501,36.43464,Cavi Saccos,10/10/1998,,,,,,,
Arusha,Arumeru,Bangata,-3.37327,36.69208,Cc Africa Saccos,17/09/2006,,,,,,,
Tabora,Tabora Urban,Kanyenye,-5.02393,32.81096,Ccm Saccos,11/06/2009,,,,,,,
Dodoma,Mpwapwa,Mpwapwa Mjini,-6.3456,36.47792,Ccu Saccos,20/04/2000,,,,,,,
Dar es Salaam,Kinondoni,Sinza,-6.7862,39.22528,Cdh Sacoss,23/09/2008,,,,,,,
Arusha,Arusha,Engutoto,-3.40372,36.70366,CFID SACCOS,20/11/2003,,,,,,,
Kilimanjaro,Rombo,Ubetu Kahe,-3.35091,37.34419,Chademai Youth Saccos,20/08/2011,,,,,,,
Shinyanga,Bariadi,Bariadi,-2.80169,33.98779,Chama Cha Akiba Na Mikopo,27/12/2006,,,,,,,
Kilimanjaro,Moshi Rural,Kirua Vunjo Mashariki,-3.39504,37.47103,Chama Cha Akiba Na Mikopo Kirua Vunjo Magharibi (Saccos),18/11/2009,,,,,,,
Shinyanga,Meatu,Mwanhuze,-3.52553,34.31267,Chama Cha Akiba Na Mikopo Vijana,18/02/2014,,,,,,,
Mwanza,Magu,Mkula,-2.24595,33.84944,Chama Cha Kukopa Na Kuweka Kalemera Saccos,24/02/2010,Yes,,Yes,,,,
Ruvuma,Songea Urban,Mshangano,-10.65399,35.64933,Chama Cha Umoja Wa Akina Mama Cha Kuweka Na Kukopa,08/11/2008,,,,,,,
Mwanza,Magu,Kiloleni,-2.59361,33.44189,Chama Cha Ushirika Cha Akiba Na Mikopo,18/01/2012,,,,,,,
Kagera,Bukoba Urban,Buhende,-1.28038,31.81598,Chama Cha Ushirika Cha Akiba Na Mikopo Tweyambe,03/08/2012,,,,,,,
Ruvuma,Songea Urban,Songea Mjini,-10.68031,35.64779,Chama Cha Ushirika Wa Akiba Na Mikopo,05/12/2009,,,,,,,
Ruvuma,Songea Urban,Songea Mjini,-10.67691,35.65128,Chama Cha Waalimu Tanzania,17/11/2013,Yes,,Yes,,,,
Dar es Salaam,Temeke,Chamazi,-6.97801,39.21392,Chamazi Saccos Ltd,18/09/2009,,,,,,,
Dodoma,Kongwa,Hogoro,-5.89242,36.4498,Chambasho Saccos,18/11/2002,,,,,,,
Tabora,Tabora Urban,Kanyenye,-5.02559,32.81469,Chamita,02/07/2009,Yes,Yes,Yes,,,,
Mbeya,Rungwe,Bulyaga,-9.25787,33.64512,Chamiwaru Saccos Ltd,10/07/2003,,,,,,,
Dodoma,Kongwa,Chamkoroma,-6.32133,36.67005,Chamtuma Saccos,07/05/2004,,,,,,,
Dodoma,Dodoma Rural,Buigiri,-6.09993,36.03865,Chamwino Saccos,13/08/2007,,,,,,,
Ruvuma,Songea Urban,Songea Mjini,-10.67855,35.65158,Changanyikeni Saccos,28/11/2005,Yes,Yes,Yes,,,,
Manyara,Simanjiro,Loibor-Siret,-4.27194,36.3755,Chapakazi Saccos Lobor-Siret Ltd,02/06/2013,,,,,,,
Shinyanga,Maswa,Malampaka,-3.13864,33.52438,Chawama Saccos,05/02/2013,,,,,,,
Mbeya,Rungwe,Bulyaga,-9.25793,33.64599,Chawamitu Saccos Tukuyu Mjini,18/02/2007,,,,,,,
Tabora,Tabora Urban,Chemchem,-5.02258,32.81404,Chawata Sacco,28/07/2004,,,,,,,
Dar es Salaam,Temeke,Tandika,-6.86524,39.2628,Chawate Saccos,05/05/1997,,,,,,,
Ruvuma,Mbinga,Mbinga Urban,-10.95081,34.99843,Chemba Saccos,24/02/1989,,,,,,,
Kilimanjaro,Moshi Rural,Arusha Chini,-3.38415,37.32992,Chemchem Saccos,04/06/2005,,,,,,,
Tabora,Tabora Urban,Cheyo,-5.03496,32.81961,Children Support,08/02/2009,Yes,Yes,Yes,,Yes,,
Tabora,Tabora Urban,Kanyenye,-5.02144,32.80432,Childs Foundation,02/10/2007,,,,,,,
Mbeya,Mbarali,Chimala,-8.85673,34.01456,Chimala Saccos Benk Ltd,18/11/2001,,,,,,,
Mbeya,Mbozi,Chitete,-9.26535,32.84056,Chitete Saccos,06/02/2014,,,,,,,
Tabora,Tabora Urban,Gongoni,-5.01629,32.81322,Community Youth Forum Sacco,09/10/2003,,,,,,,
Arusha,Arusha,Kati,-3.37091,36.69601,Continental Saccos,02/04/2000,,,,,,,
Arusha,Arusha,Kati,-3.36954,36.69415,Cooling Bed Saccos,10/10/2007,,,,,,,
Singida,Iramba,Kiomboi,-4.27998,34.40853,Cooperative Society,17/03/2008,,,,,,,
Arusha,Arusha,Kati,-3.37366,36.68764,Cosmopolitian Arusha Saccos,20/11/2000,,,,,,,
Ruvuma,Namtumbo,Namtumbo,-10.47605,36.12848,Cwt Saccos,11/11/2013,,,,,,,
Arusha,Arumeru,Kikwe,-3.37204,36.68305,Devine Saccos,02/11/2010,,,,,,,
Tabora,Igunga,Igunga,-4.2977,33.87624,Dew,07/10/2008,,,,,,,
Tabora,Nzega,Nata,-3.87126,33.19582,Dezeva Center,21/03/2012,,,,,,,
Arusha,Arusha,Kati,-3.37194,36.6975,Dioces Saccos Arusha ,07/12/1997,,,,,,,
Dodoma,Dodoma Urban,Viwandani,-6.1808,35.74954,Dodoma Cct Saccos,14/08/2010,,,,,,,
Dodoma,Dodoma Urban,Madukani,-6.1824,35.74608,Dodoma Rural Teachers Saccos,03/06/2002,,,,,,,
Dodoma,Dodoma Urban,Miyuji,-6.1301,35.73706,Don Bosco Dodoma Saccos,11/11/2013,,,,,,,
Dar es Salaam,Temeke,Yombo Vituka,-6.87873,39.25109,Dovya Lutheran Church Saccos,27/06/2003,Yes,,Yes,,,,
Tabora,Tabora Urban,Cheyo,-5.03461,32.82007,Drug Abuse,19/08/2008,,,,,,,
Arusha,Arusha,Kimandolu,-3.38361,36.71101,Dukuya Saccoss,04/11/2005,,,,,,,
Arusha,Arumeru,Akheri,-3.37616,36.78324,Duluti Saccos,20/01/2004,,,,,,,
Arusha,Arumeru,Usa River,-3.37323,36.78633,Duluti Saccos,09/01/2010,,,,,,,
Mwanza,Ilemela,Ilemela,-2.51546,32.90188,Ebenezer Saccos Bank,17/03/2012,,,,,,,
Arusha,Arumeru,Usa River,-3.37415,36.8481,Eclof Saccos,10/10/2013,,,,,,,
Arusha,Arusha,Kati,-3.37167,36.69475,Edimond Rice Saccos,16/09/2010,,,,,,,
Dodoma,Kongwa,Kongwa,-6.19786,36.41318,Ega Saccos,06/02/2012,,,,,,,
Tabora,Tabora Urban,Kanyenye,-5.0256,32.80945,Egpaf,19/12/2004,,,,,,,
Arusha,Monduli,Engaruka,-3.36297,36.67515,Elcos Saccos,06/08/2006,,,,,,,
Arusha,Arusha,Kati,-3.37182,36.69484,Elct Hq Saccos,01/05/2008,,,,,,,
Arusha,Arusha,Kati,-3.37259,36.69475,Elturoto Saccos,02/01/2005,,,,,,,
Arusha,Arumeru,Moivo,-3.3572,36.68903,Embesi Saccos,15/10/2012,,,,,,,
Arusha,Arusha,Kati,-3.3722,36.69309,Enashiva Saccos,13/10/2004,,,,,,,
Arusha,Karatu,Endabash,-3.49484,35.66592,Endamarariek Saccos,28/09/2006,,,,,,,
Manyara,Hanang,Endasaki,-4.42394,35.50982,Endasaki Saccos Ltd,15/10/2006,,,,,,,
Arusha,Arusha,Kati,-3.37079,36.68705,Endes Saccos,19/11/2008,,,,,,,
Arusha,Monduli,Longido,-2.74187,36.70173,Eng'Ape Saccos,01/05/2006,,,,,,,
Arusha,Monduli,Engaruka,-3.3814,36.70857,Engesai Parish Saccos,14/11/2008,,,,,,,
Arusha,Arusha,Kati,-3.37083,36.67768,Engosengiu Saccos,16/08/2006,,,,,,,
Arusha,Arumeru,Kimnyaki,-3.37048,36.68065,Enyoito Saccos,11/07/2010,,,,,,,
Arusha,Monduli,Longido,-2.64014,36.70052,Enyora Saccos,10/01/2002,,,,,,,
Arusha,Arumeru,Akheri,-3.37374,36.786,Enza Saccos,01/10/2008,Yes,,Yes,,,,
Arusha,Arusha,Levolosi,-3.36574,36.68465,Ephata Mafanikio Saccos,17/01/2008,,,,,,,
Arusha,Arusha,Kati,-3.37067,36.69534,Equator Saccos,12/03/2009,Yes,,,,,,
Tabora,Tabora Urban,Cheyo,-5.02552,32.81725,Equip Tanzaniaa,03/12/2010,,,,,,,
Arusha,Monduli,Engaruka,-3.38351,36.71107,Equity For Tanzania,10/12/2005,,,,,,,
Morogoro,Morogoro Urban,Boma,-6.82909,37.66904,Ettoc Consultancy Limited,19/04/2007,,,,,,,
Arusha,Arumeru,Moshono,-3.37264,36.69439,Eumata Saccos,01/10/2007,,,,,,,
Tabora,Tabora Urban,Itetemia,-5.02867,32.80727,Eye Care,08/07/2012,,,,,,,
Arusha,Arusha,Kati,-3.36852,36.69458,Fahari Yetu Saccos,03/09/1996,,,,,,,
Kagera,Biharamulo,Biharamulo Mjini,-2.63485,31.3118,Faiders.,01/09/1995,,,,,,,
Shinyanga,Maswa,Nyalikungu,-3.18286,33.78036,Faidiaka,06/03/2010,,,,,,,
Ruvuma,Namtumbo,Namtumbo,-10.46579,36.13578,Faidika Namtumbo,11/11/2012,,,,,,,
Ruvuma,Songea Urban,Songea Mjini,-10.67925,35.65198,Faidika Saccos,17/11/2013,,,,,,,
Kagera,Biharamulo,Katende,-2.63552,31.31256,Faidika Saccos,24/06/2003,,,,,,,
Kagera,Biharamulo,Biharamulo Mjini,-2.63416,31.3111,Faidika Saccos Ltd,25/05/2010,,,,,,,
Tabora,Tabora Urban,Gongoni,-5.01912,32.80935,Fame,10/11/2006,,,,,,,
Kilimanjaro,Rombo,Makiidi,-3.28795,37.51045,Faraja Catering Saccos,12/06/2013,,,,,,,
Tabora,Tabora Urban,Kanyenye,-5.01968,32.80468,Feisal,20/11/2010,,,,,,,
Tabora,Tabora Urban,Isevya,-5.01568,32.81217,Fida,03/10/2007,,,,,,,
Arusha,Arumeru,Usa River,-3.37558,36.84894,Fides Saccos,18/01/2007,,,,,,,
Mwanza,Geita,Kalangala,-2.87221,32.23359,Finca,11/03/2012,,,,,,,
Kagera,Bukoba Urban,Buhende,-1.33013,31.8086,Finca,28/03/2007,,,,,,,
Dodoma,Dodoma Urban,Viwandani,-6.17496,35.74759,Flogham Finanicial Seves,16/03/2012,Yes,,Yes,,,,
Mbeya,Mbeya Urban,Forest (Mbeya ward),-8.90618,33.44751,Forest Lutheran Saccos,20/05/2012,,,,,,,
Tabora,Tabora Urban,Isevya,-5.01675,32.81318,Fransisco,05/08/2006,,,,,,,
Arusha,Arusha,Ngarenaro,-3.36151,36.67546,Freidking Saccos,15/01/2000,,,,,,,
Mwanza,Misungwi,Misungwi,-2.62543,32.9464,Fsa Mkolan Saccos Limited,08/01/2011,,,,,,,
Mwanza,Nyamagana,Mkuyuni,-2.60199,32.93149,Fsa Mkolani Saccos,30/09/2005,Yes,,Yes,,,,
Mwanza,Nyamagana,Mkuyuni,-2.55865,32.91319,Fsa Saccos,29/10/2009,,,,,,,
Manyara,Babati,Gallapo,-4.28674,35.85357,Gallapo Farmers Saccos,10/03/2006,,,,,,,
Mwanza,Nyamagana,Nyamagana,-2.62385,32.94541,Gamas Savings Finance,11/06/2013,,,,,,,
Tabora,Tabora Urban,Kanyenye,-5.02282,32.81379,Gasper,30/01/2010,,,,,,,
Mwanza,Geita,Kalangala,-2.87148,32.23461,Geita Saccos Bank,19/02/2007,,,,,,,
Arusha,Karatu,Rhotia,-3.3903,35.70507,Gelame Saccos Ltd,28/01/2006,,,,,,,
Manyara,Babati,Singe,-4.25737,35.74717,Gendi Saccos,10/12/1988,,,,,,,
Dodoma,Kondoa,Goima,-5.1461,35.97026,Goima Saccos,06/02/2010,,,,,,,
Ruvuma,Songea Urban,Bomba Mbili,-10.65555,35.65348,Green Hill Saccos,08/11/2012,,,,,,,
Ruvuma,Songea Rural,Gumbiro,-9.90165,35.44848,Gumbiro Caccos Text Calls,23/02/2014,,,,,,,
Manyara,Mbulu,Gehandu,-3.84348,35.5709,Guwangw Irrigation Saccos,01/11/2003,,,,,,,
Mbeya,Rungwe,Kandete,-9.14706,33.79476,Gwalikugu Saccos,18/01/2011,,,,,,,
Kilimanjaro,Hai,Hai Mjini,-3.33253,37.14641,H.R.T Saccos (Fosa),16/09/2007,,,,,,,
Arusha,Arusha,Levolosi,-3.36561,36.69662,Habari Maalum Saccos,03/09/2000,,,,,,,
Kilimanjaro,Hai,Hai Mjini,-3.34777,37.33683,Hai Rural Teachers Saccos,07/10/2005,,,,,,,
Kilimanjaro,Hai,Hai Mjini,-3.35424,37.33721,Hai Teachers' Saccos,01/07/2010,Yes,,Yes,,,,
Dar es Salaam,Ilala,Kisutu,-6.82153,39.28098,Hajj Trust Saccos Limited,25/12/2011,,,,,,,
Arusha,Arumeru,Kimnyaki,-3.39846,36.71269,Hanspaul Workers Saccos,20/10/2008,,,,,,,
Manyara,Hanang,Katesh,-4.52131,35.38124,Hekima Saccos,14/10/2010,Yes,,Yes,,,,
Mbeya,Rungwe,Kandete,-9.14874,33.79212,Hiari Saccos Ltd,13/06/2006,,,,,,,
Arusha,Arusha,Kati,-3.3721,36.69447,Hifadhi Saccos,29/11/1999,,,,,,,
Mwanza,Nyamagana,Mkuyuni,-2.55935,32.91441,Hodea,01/01/2010,,,,,,,
Ruvuma,Songea Urban,Mshangano,-10.64949,35.64641,Hoja Project Songea,01/11/2010,,,,,,,
Arusha,Arusha,Kimandolu,-3.37182,36.70522,Hotel 77 Saccos,05/12/1983,,,,,,,
Shinyanga,Kahama,Mwendakulima,-3.83249,32.62063,Human Develepment Association Saccos,12/03/2013,,,,,,,
Arusha,Arusha,Kati,-3.36923,36.69467,Iaa Saccoss,30/10/2001,,,,,,,
Kagera,Muleba,Kamachumu,-1.62081,31.61935,Ibuga Parish Saccos,20/05/1999,,,,,,,
Kagera,Muleba,Kamachumu,-1.62067,31.61932,Ibuga Saccos Ltd,04/09/2009,,,,,,,
Kagera,Bukoba Urban,Kideta,-1.33711,31.78814,Ibura Saccos Ltd,17/05/2012,,,,,,,
Arusha,Arusha,Kati,-3.37745,36.68913,Ich. Staff Saccos,06/01/2002,,,,,,,
Mbeya,Mbozi,Igamba,-8.98482,32.93179,Igamba Saccos,15/05/2006,,,,,,,
Mbeya,Mbarali,Madibira,-8.58366,34.4748,Igava Saccos,30/01/2009,,,,,,,
Tabora,Igunga,Igunga,-4.29766,33.87644,Igunga Sacco,05/12/2004,,,,,,,
Tabora,Igunga,Igunga,-4.28697,33.87472,Igunga Teachers Saccos Ltd,01/04/2002,,,,,,,
Tabora,Igunga,Igurubi,-4.29781,33.87614,Igurubi Sacco,05/09/2005,,,,,,,
Kagera,Muleba,Kashasha,-1.79989,31.58881,Ihangiro Saccos Ltd,03/07/2011,,,,,,,
Mbeya,Kyela,Ikolo,-9.63558,33.88308,Ikolo Saccos,20/10/2007,,,,,,,
Singida,Singida Rural,Ikungi+B2253,-5.12782,34.76843,Ikungi Saccos,11/06/2008,,,,,,,
Mbeya,Rungwe,Ikuti,-9.29836,33.53167,Ikuti Saccos Ltd,26/03/2004,,,,,,,
Mbeya,Ileje,Itumba,-9.41035,33.18622,Ileje Employee Saccos,30/12/1993,,,,,,,
Mbeya,Mbeya Urban,Ilemi,-8.90271,33.46284,Ilemi Saccos Mbr Reg 789,04/01/2014,,,,,,,
Mbeya,Rungwe,Ilima,-9.3394,33.66295,Ilima Saccos,25/02/2007,,,,,,,
Singida,Singida Rural,Ilongero,-4.67053,34.87303,Ilongero Saccos,03/08/2010,,,,,,,
Mbeya,Kyela,Ipinda,-9.48249,33.87711,Ilopa Group,25/05/2013,,,,,,,
Lindi,Lindi Urban,Makonde,-9.99933,39.7167,Ilulusacco,06/02/2006,Yes,Yes,,,Yes,,
Mara,Tarime,Tarime,-1.49462,33.80915,Imara Saccos,01/06/2012,,,,,,,
Mbeya,Mbozi,Vwawa,-9.1081,32.93543,Imperial,06/02/2014,,,,,,,
Dar es Salaam,Kinondoni,Kijitonyama,-6.76804,39.2295,Inawezekana Saccoos,20/02/2013,,,,,,,
Arusha,Monduli,Engaruka,-3.29632,36.44713,Inyuat Emoita Saccos,24/01/2010,,,,,,,
Mbeya,Kyela,Ipinda,-9.48296,33.88304,Ipinda Amcos,25/02/2003,,,,,,,
Mbeya,Kyela,Ipinda,-9.48296,33.88332,Ipinda Saccos,03/04/2007,,,,,,,
Singida,Iramba,Kiomboi,-4.27777,34.4104,Iramba Teachers Saccos,10/05/1990,,,,,,,
Shinyanga,Kahama,Isaka,-3.90513,32.9466,Isaka Saccos,27/07/2009,,,,,,,
Mwanza,Ilemela,Ilemela,-2.51029,32.90113,Isamilo Saccos,13/01/2012,,,,,,,
Mbeya,Mbozi,Isansa,-8.92529,32.96895,Isansa Saccos,02/04/2002,,,,,,,
Mbeya,Mbozi,Ihanda,-9.06403,32.97113,Isumi Amcos Ltd,01/12/1983,,,,,,,
Shinyanga,Kahama,Kahama Mjini,-3.82058,32.60162,Jackson Tunakopesha,20/10/2013,,,,,,,
Mbeya,Mbarali,Utengule,-8.76026,33.79477,Jakaya Saccos,04/02/2014,,,,,,,
Mara,Bunda,Neruma,-1.76432,33.85402,Jamaa Saccos,23/10/2007,Yes,,Yes,,Yes,,
Manyara,Babati,Babati,-4.21894,35.74788,Jamii Farm Africa Sacos,11/02/1998,,,,,,,
Arusha,Arusha,Ngarenaro,-3.37505,36.6805,Jamio Saccos,28/11/2002,,,,,,,
Tabora,Tabora Urban,Kanyenye,-5.02342,32.8089,Jhg,20/10/2009,,,,,,,
Mara,Tarime,Tarime,-1.34534,34.38328,Jiendeleze Saccos,13/03/2013,,,,,,,
Tabora,Tabora Urban,Isevya,-5.01672,32.81266,Jijari Ujirinde,08/07/2010,,,,,,,
Shinyanga,Shinyanga Urban,Kambarage,-3.67016,33.41993,Jijenge Saccos,27/11/2013,,,,,,,
Arusha,Arumeru,Kikwe,-3.37219,36.68134,Jikomboe Saccos,05/09/2012,,,,,,,
Mbeya,Rungwe,Katumba,-9.21816,33.64475,Jilanjo Ukombozi,23/02/2010,,,,,,,
Singida,Iramba,Nduguti,-4.30519,34.70244,Jima Saccos Ltd,14/06/2008,,,,,,,
Singida,Iramba,Shelui,-4.35993,34.19565,Jipemoyo Saccos Ltd,18/05/2010,Yes,,Yes,,,Yes,
Tabora,Tabora Urban,Isevya,-5.01658,32.81269,Jitambue,02/07/2008,,,,,,,
Mara,Serengeti,Ring'wani,-1.50971,33.80597,Jitegeme Saccos,01/02/2012,Yes,,Yes,,,,
Shinyanga,Bariadi,Bariadi,-2.80242,33.98962,Jitegemee Saccos,31/01/2001,,,,,,,
Mbeya,Rungwe,Isongole,-9.0337,33.60605,Jitihada Saca Rungwe - Isongole,28/02/2004,,,,,,,
Arusha,Arusha,Kimandolu,-3.37024,36.68544,Jitume Plus Finance,04/01/2007,,,,,,,
Arusha,Arumeru,Usa River,-3.37352,36.84866,Jobet Financial Service,07/12/2014,Yes,,Yes,,,,
Singida,Manyoni,Itigi,-5.69563,34.4988,Joseph Matumaini Huduma Ltd,30/05/2008,,,,,,,
Singida,Manyoni,Manyoni,-5.74755,34.83685,Joseph S. Raongo Saccos Ltd,16/05/2008,,,,,,,
Arusha,Arusha,Kati,-3.3744,36.68849,Jr Staff Saccos,11/10/2013,,,,,,,
Mbeya,Kyela,Kyela Mjini,-9.60181,33.86555,Juhudi Kyela Saccos Reg Mbr 528,21/12/2011,,,,,,,
Dodoma,Kondoa,Kondoa Mjini,-4.90435,35.7955,Juhudi Afya Saccos,14/07/2008,,,,,,,
Mbeya,Kyela,Kyela Mjini,-9.60206,33.86571,Juhudi Saccos Ltd,23/11/2006,,,,,,,
Mwanza,Nyamagana,Pamba,-2.52256,32.90491,Jumak Saccos Ltd,16/01/2011,,,,,,,
Kagera,Muleba,Muleba,-1.84246,31.65286,Jumuika Saccos Ltd,28/01/2013,,,,,,,
Mbeya,Rungwe,Lufingo,-9.28999,33.60039,Kagwina Amcos,03/02/1993,,,,,,,
Shinyanga,Kahama,Kahama Mjini,-3.82284,32.58845,Kahama District Education Trust Fund,07/05/2006,,,,,,,
Kilimanjaro,Moshi Rural,Kahe Mashariki (East),-3.36166,36.69729,Kahe Women With Vision Saccos (Bar),22/08/2012,,,,,,,
Kilimanjaro,Hai,Hai Mjini,-3.33551,37.14693,Kai Saccos,08/08/2006,,,,,,,
Mbeya,Kyela,Kajunjumele,-9.59486,33.93562,Kajunjumele Saccos Ltd,24/09/2002,,,,,,,
Kilimanjaro,Hai,Machame Kaskazini,-3.21861,37.22248,Kalali Dairy Co-Operative Society Ltd,18/05/2008,,,,,,,
Kilimanjaro,Hai,Machame Kusini,-3.2187,37.22076,Kalali Saccos,11/09/2000,,,,,,,
Kilimanjaro,Rombo,Ushiri Ikuini,-3.35466,37.33041,Kalembo Bar & Guest House,15/08/2010,,,,,,,
Kagera,Muleba,Kamachumu,-1.62214,31.61628,Kamachumu Plateua Saccos Ltd,08/03/1998,Yes,Yes,Yes,,,,
Dar es Salaam,Temeke,Mtoni,-6.88501,39.27817,Kanaani Saccos,18/05/2010,Yes,,Yes,,,,
Shinyanga,Kahama,Ulowa,-4.21079,32.1516,Kangeme,05/01/2011,,,,,,,
Tabora,Tabora Urban,Kanyenye,-5.02428,32.80869,Kanyenye Sacco,17/10/2011,,,,,,,
Tabora,Tabora Urban,Kanyenye,-5.0245,32.81198,Kape,06/11/2011,,,,,,,
Tabora,Tabora Urban,Gongoni,-5.01676,32.81382,Kapella Sacco,20/06/2009,,,,,,,
Kagera,Karagwe,Kayanga,-1.53443,31.15596,Karadea Saccos Ltd,18/10/2006,,,,,,,
Kilimanjaro,Moshi Urban,Karanga,-3.35771,37.32434,Karanga Saccos,10/11/2003,Yes,,Yes,,,,
Kilimanjaro,Moshi Urban,Karanga,-3.32541,37.34933,Karanga Women Saccos,10/05/2010,,,,,,,
Arusha,Karatu,Karatu,-3.34513,35.67121,Karatu District Council Saccos,17/01/2001,,,,,,,
Arusha,Karatu,Karatu,-3.34122,35.66567,Karatu District Teachers Saccos Ltd,24/01/1997,,,,,,,
Arusha,Karatu,Karatu,-3.33883,35.66703,Karatu Elct Saccos,22/01/1997,,,,,,,
Dar es Salaam,Kinondoni,Sinza,-6.77329,39.22348,Karida Saccos,26/11/2009,,,,,,,
Rukwa,Sumbawanga Urban,Katandala,-7.96836,31.61901,Kasama Wantu Saccos,28/05/2008,,,,,,,
Mwanza,Geita,Katoro,-3.00468,31.92474,Kasembe Mabamba,14/12/2013,Yes,,Yes,,,,
Singida,Singida Urban,Mughanga,-4.8159,34.75461,Kasi Mpya Saccos,25/08/2006,,,,,,,
Kagera,Karagwe,Kituntu,-1.41836,31.14534,Katembe Saccos Ltd,30/03/2005,,,,,,,
Arusha,Arusha,Kati,-3.37349,36.68782,Kati Saccos,23/02/2006,,,,,,,
Mbeya,Rungwe,Katumba,-9.22228,33.64177,Katumba Amcos,25/02/2003,,,,,,,
Mbeya,Rungwe,Katumba,-9.21959,33.64391,Katumba Chai Saccos,01/02/1993,,,,,,,
Kagera,Karagwe,Kayanga,-1.53217,31.155,Kawosa Saccos Ltd,10/01/2012,,,,,,,
Tabora,Tabora Urban,Cheyo,-5.02278,32.80914,Kazamwendo,07/03/2012,,,,,,,
Tabora,Tabora Urban,Kanyenye,-5.0227,32.80931,Kazehil Saccos,17/01/2009,,,,,,,
Dar es Salaam,Ilala,Ukonga,-6.89477,39.1652,Kblc Saccos,23/12/2011,,,,,,,
Kagera,Bukoba Urban,Mimbeni,-1.3359,31.81646,Kcu Saccos Ltd,04/09/1988,,,,,,,
Kagera,Karagwe,Kayanga,-1.54039,31.15456,Kdcu Workers Saccos Ltd,10/06/2010,,,,,,,
Mara,Tarime,Kemambo,-1.46138,34.53303,Kema Saccos,01/11/2013,,,,,,,
Kilimanjaro,Rombo,Makiidi,-3.3546,37.33019,Kemrime Saccos (Molases Centre),02/03/2011,,,,,,,
Dar es Salaam,Temeke,Kigamboni,-6.83043,39.31517,Kibabane Saccos,16/09/2009,,,,,,,
Dodoma,Kongwa,Kibaigwa,-6.075,36.64378,Kibaigwa Saccos,09/01/2008,,,,,,,
Dodoma,Dodoma Urban,Madukani,-6.17614,35.74493,Kibo Saccos,13/04/2004,,,,,,,
Kilimanjaro,Moshi Urban,Kiusa,-3.35599,37.33209,Kibo Savings & Credit Society Ltd,08/07/2001,,,,,,,
Kilimanjaro,Moshi Rural,Kahe Mashariki (East),-3.35324,37.33593,Kibol Saccos,14/05/2000,Yes,Yes,Yes,,Yes,,
Kigoma,Kibondo,Kibondo Mjini,-3.58531,30.72002,Kibondo Hopes Saccos,26/02/2006,,,,,,,
Kigoma,Kibondo,Kibondo Mjini,-3.58444,30.71763,Kibondo Teachers Saccos,26/02/1999,,,,,,,
Iringa,Njombe,Luduga,-9.55105,35.10907,Kifanya Saccos,28/07/2006,Yes,,Yes,,,,
Dodoma,Kongwa,Kibaigwa,-6.08105,36.64658,Kifi Saccoss,21/09/2000,,,,,,,
Kilimanjaro,Mwanga,Kifula,-3.39513,37.47089,Kifula Chini Saccos,02/06/2010,,,,,,,
Kilimanjaro,Mwanga,Kighare,-3.3552,37.3307,Kighare Sifuni Choir Saccos,15/08/2010,,,,,,,
Kilimanjaro,Mwanga,Kighare,-3.35546,37.3343,Kighare Welding Youth Saccos,10/02/2010,Yes,,Yes,,,,
Ruvuma,Mbinga,Kigonsera,-10.7955,35.08281,Kigonsera Saccos,18/11/2007,,,,,,,
Ruvuma,Mbinga,Litembo,-10.92884,34.85229,Kihagano Saccos,03/12/2013,,,,,,,
Arusha,Arusha,Kimandolu,-3.38355,36.71103,Kijenge Animal Product,29/12/2004,,,,,,,
Arusha,Arusha,Oloirien,-3.38406,36.70956,Kijenge Rc Saccos,01/04/2007,Yes,,Yes,,,,
Kilimanjaro,Moshi Urban,Longuo,-3.30659,37.33088,Kikalola Saccos,09/02/2009,Yes,,Yes,,,,
Arusha,Arumeru,Kikatiti,-3.3874,36.94236,Kikatiti Saccos Ltd,30/07/2010,,,,,,,
Singida,Iramba,Kaselya,-4.68797,34.46285,Kikonge Saccos,25/05/2005,,,,,,,
Dar es Salaam,Ilala,Segerea,-6.84086,39.20178,Kikua Sacco,27/09/2011,,,,,,,
Ruvuma,Mbinga,Kigonsera,-10.79734,35.0818,Kikundi Cha Jitambue Kigonsera,18/11/2013,,,,,,,
Ruvuma,Songea Urban,Mshangano,-10.54257,35.6141,Kikundi Cha Muungano - Mpandangindo,13/11/2004,,,,,,,
Kilimanjaro,Moshi Rural,Uru Kaskazini,-3.3583,37.33846,Kilahia Women Dairy Saccos,12/03/2013,,,,,,,
Kilimanjaro,Rombo,Kelamfua Mokala,-3.19096,37.6083,Kilemfua Mokala Saccos,26/03/2008,,,,,,,
Mwanza,Ilemela,Nyamanoro,-2.49206,32.90728,Kilimahewa Saccos,20/04/2011,,,,,,,
Tabora,Tabora Urban,Kanyenye,-5.0252,32.81206,Kilimo Sacco,18/06/2005,,,,,,,
Manyara,Hanang,Katesh,-4.523,35.37512,Kilimo Saccos,01/07/2003,,,,,,,
Lindi,Lindi Urban,Mitande,-9.99461,39.71098,Kilisacco,29/10/1996,Yes,Yes,Yes,,Yes,Yes,NMB Mobile
Arusha,Arusha,Levolosi,-3.37389,36.67897,Kilombero Saccos,01/02/2006,Yes,,Yes,,Yes,,
Morogoro,Kilombero,Ifakara,-8.14302,36.67823,Kilombero Teachers Saccos,22/09/2001,,,,,,,
Kilimanjaro,Mwanga,Kilomeni,-3.3457,37.32219,Kilomeni Kkkt Saccoss,21/08/2009,,,,,,,
Arusha,Arusha,Unga L.T.D.,-3.40295,36.66704,Kimahama Saccos,26/09/2005,,,,,,,
Arusha,Arusha,Lemara,-3.37122,36.68601,Kimandolu Utu Family,18/11/2006,,,,,,,
Dar es Salaam,Ilala,Segerea,-6.82983,39.20549,Kimanga Saccos,20/12/2011,,,,,,,
Dar es Salaam,Kinondoni,Kimara,-6.78225,39.15657,Kingongo,09/02/2009,,,,,,,
Mbeya,Rungwe,Kinyala,-9.11799,33.49265,Kinyala Saccos,24/02/2004,,,,,,,
Dar es Salaam,Kinondoni,Kijitonyama,-6.76642,39.22916,Kinyamvuo,24/01/2008,,,,,,,
Dar es Salaam,Kinondoni,Kijitonyama,-6.76622,39.22904,Kinyanvuo Saccos,01/01/2008,Yes,,Yes,,,,
Tabora,Tabora Urban,Gongoni,-5.01813,32.80381,Kipama Saccos Ltd,20/07/2012,,,,,,,
Mbeya,Chunya,Lupa Tingatinga,-8.03621,33.26726,Kipembawe Saccos Ltd,10/10/2012,,,,,,,
Dar es Salaam,Ilala,Kitunda,-6.88926,39.18799,Kipunguni Saccos,01/10/2010,,,,,,,
Morogoro,Morogoro Rural,Kiroka,-6.842,37.82354,Kiroka Ukombozi Saccos,25/04/2007,,,,,,,
Arusha,Arusha,Kati,-3.37271,36.69276,Kirumbi Saccos,15/11/2006,,,,,,,
Arusha,Arusha,Kati,-3.37259,36.69298,Kisam Sam Saccos,19/02/2014,,,,,,,
Pwani,Kisarawe,Kisarawe,-6.90665,39.07409,Kisarawe Teachers Saccos Ltd,09/11/2007,,,,,,,
Shinyanga,Kishapu,Kishapu,-3.6196,33.81212,Kishapu Saccoss,22/04/2006,,,,,,,
Arusha,Arumeru,Kisongo,-3.37343,36.57382,Kisolupa Saccos,10/01/2013,,,,,,,
Shinyanga,Shinyanga Urban,Ibinzamata,-3.6792,33.42355,Kitangili Saccos,09/10/2010,,,,,,,
Kagera,Muleba,Ibuga,-1.62632,31.61253,Kitengo Saccos Ltd,28/03/2011,,,,,,,
Manyara,Kiteto,Kibaya,-5.31518,36.5656,Kiteto Agriculture Saccos,14/11/2003,,,,,,,
Dar es Salaam,Ilala,Upanga East,-6.80441,39.28478,Kitonga Hope Saccos Drs 969,01/03/2013,,,,,,,
Dar es Salaam,Ilala,Chanika,-7.00582,39.08259,Kitunda Co Operative Saving & Credit Society Ltd,04/01/2007,,,,,,,
Dar es Salaam,Ilala,Kitunda,-6.90232,39.1714,Kitunda Saccos Ltd,11/12/2002,,,,,,,
Lindi,Lindi Rural,Kiwalala,-10.19256,39.53591,Kiwalala Saccos,10/03/2008,,,,,,,
Pwani,Mkuranga,Mkuranga,-7.12191,39.20558,Kiwama Saccos,11/04/2010,,,,,,,
Dar es Salaam,Ilala,Tabata,-6.84117,39.21192,Kiwamali,10/10/2009,Yes,Yes,Yes,,,,
Pwani,Bagamoyo,Kiwangwa,-6.37199,38.58222,Kiwangwa Saccos,22/01/2010,,,,,,,
Mbeya,Rungwe,Kiwira,-9.16941,33.54216,Kiwira Saccos,03/06/2010,,,,,,,
Pwani,Kisarawe,Kisarawe,-6.97747,38.99912,Kiwmali,28/01/2014,Yes,Yes,Yes,,,,
Arusha,Arusha,Kimandolu,-3.37326,36.70456,Kk Security Saccos,11/02/2013,,,,,,,
Dodoma,Dodoma Urban,Kiwanja cha Ndege,-6.16769,35.74783,Kkkt Arusha Rod Sacoss,25/05/2004,Yes,Yes,Yes,,,Yes,
Dodoma,Kongwa,Kongwa,-6.19523,36.41084,Kkkt Kongwa Saccos,07/11/2013,,,,,,,
Arusha,Arumeru,Mbuguni,-3.38333,36.7114,Kkkt Mbulumbulu,02/10/2005,,,,,,,
Kilimanjaro,Hai,Siha Kaskazini,-3.3468,37.3441,Kkkt Nkoarungo Saccos,15/07/2011,,,,,,,
Kilimanjaro,Hai,Machame Kaskazini,-3.21989,37.2201,Kkkt Uduru Saccos,31/05/2006,,,,,,,
Dar es Salaam,Temeke,Mjimwema,-6.85305,39.35487,Koc Saccos,04/02/2013,,,,,,,
Dodoma,Kongwa,Kongwa,-6.19671,36.41304,Kodi Saccos,31/10/2001,,,,,,,
Arusha,Arumeru,Akheri,-3.37163,36.69487,Koinere Saccos,02/10/2008,,,,,,,
Kagera,Muleba,Biirabo,-1.85752,31.57117,Kolping Family Kabare,13/02/2007,,,,,,,
Arusha,Monduli,Engaruka,-3.37124,36.68371,Komolonik Saccos,10/10/2010,,,,,,,
Dodoma,Kondoa,Kondoa Mjini,-4.90856,35.78954,Kondoa Saccos,03/12/2013,,,,,,,
Dodoma,Kondoa,Kondoa Mjini,-4.9051,35.78451,Kondoa Teachers Saccos,03/01/2009,,,,,,,
Dodoma,Kondoa,Kondoa Mjini,-4.90564,35.78448,Kondoa Womens Saccos,19/05/2005,,,,,,,
Dodoma,Kongwa,Kongwa,-6.1959,36.40948,Kote Saccos,03/01/1999,,,,,,,
Arusha,Arusha,Unga L.T.D.,-3.37708,36.68597,Krok Saccos,22/12/2002,,,,,,,
Shinyanga,Bukombe,Runzewe,-3.39759,31.44999,Kukombolewa Saccos,05/04/2013,,,,,,,
Mbeya,Chunya,Itewe,-8.52684,33.4239,Kulugenzi Saccos,23/08/1982,,,,,,,
Mbeya,Mbeya Rural,Bonde la Usongwe,-8.9477,33.24354,Kumekucha Saccos,03/07/1991,,,,,,,
Singida,Manyoni,Itigi,-5.70311,34.49551,Kumekucha Saccos,21/03/2000,,,,,,,
Manyara,Hanang,Katesh,-4.51712,35.38953,Kurugenzi Saccos,01/05/1993,,,,,,,
Arusha,Arumeru,Kikwe,-3.37355,36.69051,Kurugenzi Saccos,06/08/1989,,,,,,,
Ruvuma,Mbinga,Mbinga Urban,-10.9448,34.99411,Kurugenzi Saccos Reg 267,24/02/1979,,,,,,,
Arusha,Arusha,Kati,-3.36928,36.6932,Kusure Saccos,15/10/2008,,,,,,,
Shinyanga,Shinyanga Urban,Kambarage,-3.67024,33.42027,Kutayaba Saccos,22/04/2010,,,,,,,
Pwani,Rufiji,Ikwiriri,-7.9536,38.98727,Kutayba,12/08/2013,,,,,,,
Tabora,Tabora Urban,Kanyenye,-5.02448,32.80915,Kutayba Sacco Ltd,18/11/2012,,,,,,,
Ruvuma,Songea Urban,Songea Mjini,-10.67724,35.65057,Kutayba Saccos,05/11/2013,,,,,,,
Mbeya,Mbeya Urban,Maanga,-8.90853,33.45926,Kutayba Saccos,15/10/2010,Yes,,,,,,
Manyara,Hanang,Katesh,-4.52257,35.38268,Kutayba Saccos,01/07/2013,,,,,,,
Arusha,Arusha,Kaloleni,-3.37111,36.68739,Kutayba Saccos,21/09/2007,,,,,,,
Dar es Salaam,Ilala,Buguruni,-6.83544,39.25214,Kutayba Saccos Ltd,15/09/2010,,,,,,,
Dodoma,Dodoma Urban,Majengo,-6.17865,35.74213,Kutayba Saccos Ltd,15/10/2011,,,,,,,
Manyara,Kiteto,Kibaya,-5.31181,36.5614,Kutayba Saccos Ltd,25/10/2013,,,,,,,
Dodoma,Kondoa,Kondoa Mjini,-4.90277,35.77648,Kutayba Saccos Ltd,29/10/2012,,,,,,,
Manyara,Babati,Babati,-4.21244,35.7469,Kutayba Saccos Ltd,01/06/2012,,,,,,,
Shinyanga,Shinyanga Urban,Shinyanga Mjini,-3.67033,33.42055,Kutayba Saccos Ltd,31/01/2014,,,,,,,
Kagera,Bukoba Urban,Hamgende,-1.32296,31.80137,Kutayba Saccos Ltd,19/01/2014,,,,,,,
Lindi,Lindi Urban,Makonde,-10.00038,39.71596,Kutaybasacos,15/10/2010,,,,,,,
Singida,Singida Urban,Majengo,-4.82072,34.75371,Kutyba Saccos,12/10/2010,,,,,,,
Arusha,Arumeru,Akheri,-3.37323,36.77345,Kuwawayata Saccos,19/02/2014,,,,,,,
Rukwa,Sumbawanga Urban,Katandala,-7.95937,31.61596,Kuytaba Saccos Ltd,15/10/2011,,,,,,,
Dodoma,Kongwa,Kongwa,-6.19706,36.41215,Kwosaccos-Kongwa,08/06/2010,,,,,,,
Kagera,Misenyi,Muhutwe,-1.25339,31.42331,Kyaka Saccos Ltd,16/12/2008,,,,,,,
Mbeya,Kyela,Ikama,-9.50005,33.89934,Kyangala Saccos,31/01/2014,,,,,,,
Mbeya,Kyela,Kyela Mjini,-9.58605,33.85614,Kyela Sacco Tet,31/01/2014,Yes,,Yes,,,,
Mbeya,Rungwe,Kyimo,-9.20888,33.5895,Kyimo Saccos Ltd,03/07/2003,,,,,,,
Manyara,Babati,Singe,-4.25715,35.74726,Lake Teachers Saccos Ltd,27/10/2005,,,,,,,
Shinyanga,Maswa,Lalango,-3.4448,33.95263,Lalago Tuinuane Saccos,15/10/2007,,,,,,,
Rukwa,Mpanda,Kashaulili,-6.33851,31.07032,Latcu Saccos,23/12/2007,,,,,,,
Dodoma,Mpwapwa,Mpwapwa Mjini,-6.3498,36.48726,Let Shego,16/05/2012,,,,,,,
Dar es Salaam,Temeke,Mbagala,-6.92435,39.26896,Let Women Together Co.Ltd(Lewotoco),05/05/2013,,,,,,,
Arusha,Arusha,Kaloleni,-3.36887,36.68167,Likamba Saccos,12/01/2000,,,,,,,
Lindi,Lindi Urban,Makonde,-9.99774,39.71714,Lindi Teachers Saccos Limited,18/03/1999,,,,,,,
Lindi,Lindi Urban,Wireless,-10.00051,39.70973,Lindi Town Teachers Saccos,18/05/2005,,,,,,,
Ruvuma,Namtumbo,Luwegu,-10.55971,35.93095,Litola Saccos,12/11/2013,,,,,,,
Lindi,Liwale,Liwale Mjini,-9.80422,37.92646,Liwale Teachers Saccos Ltd,06/01/1994,,,,,,,
Lindi,Lindi Urban,Makonde,-9.99841,39.71479,Lmsacoba,01/06/2013,Yes,Yes,,,Yes,,
Kilimanjaro,Moshi Rural,Mwika Kaskazini,-3.27956,37.57735,Lokingamma,31/12/2003,,,,,,,
Arusha,Monduli,Longido,-2.73272,36.69564,Longido Saccos,10/01/2010,,,,,,,
Arusha,Monduli,Longido,-2.748,36.70405,Longido Teachers Saccos,10/05/2010,,,,,,,
Arusha,Monduli,Longido,-2.74793,36.7039,Longido Workers,12/02/2010,,,,,,,
Kilimanjaro,Moshi Urban,Longuo,-3.35524,37.33707,Longuo Youth Saccos,17/10/2013,,,,,,,
Arusha,Arusha,Kati,-3.3713,36.69519,Loolera Saccos,04/11/2006,,,,,,,
Lindi,Lindi Urban,Wireless,-10.00067,39.70189,Ltc Saccos,18/10/2002,,,,,,,
Mbeya,Rungwe,Lufingo,-9.2344,33.59405,Lufingo Saccos Ltd,01/02/2004,,,,,,,
Mbeya,Mbeya Urban,Ruanda,-8.91172,33.46905,Lulu Saccos,10/03/2003,,,,,,,
Mbeya,Mbeya Urban,Iyela,-8.91169,33.4609,Lumbaki Sacco Mbr 770,07/07/2001,,,,,,,
Mbeya,Kyela,Ipinda,-9.48455,33.87696,Lumki Group,01/03/2012,,,,,,,
Shinyanga,Bukombe,Lugunga,-3.52128,32.22804,Lunga Tuinuane Saccos,06/11/2012,,,,,,,
Singida,Manyoni,Kintinku,-5.88828,35.21721,Lusilile Saccos Ltd,01/09/2007,,,,,,,
Ruvuma,Namtumbo,Luwegu,-10.55839,35.93297,Luwegu Saccos,12/11/2013,,,,,,,
Arusha,Arumeru,Kiranyi,-3.3634,36.69664,Lweru Saccos,05/09/2007,,,,,,,
Mbeya,Rungwe,Ikuti,-9.31614,33.56761,Lyenje Saccos Rungwe,02/05/2003,,,,,,,
Arusha,Arusha,Kimandolu,-3.38328,36.71088,Maadili Saccos,11/07/2006,,,,,,,
Arusha,Arusha,Kati,-3.36564,36.68476,Maadili Saccos,16/09/2006,,,,,,,
Dar es Salaam,Kinondoni,Mabibo,-6.81109,39.22507,Mabibo Sacco,21/05/2002,,,,,,,
Shinyanga,Bukombe,Ushirombo,-3.47132,31.9008,Maboto Enterprises,09/05/2010,,,,,,,
Shinyanga,Maswa,Isanga,-3.18295,33.78022,Maboto Enterprises Maswa Branch,25/07/2008,,,,,,,
Kilimanjaro,Moshi Urban,Pasua,-3.37276,37.33372,Macedonia Saccos,03/07/2011,,,,,,,
Tabora,Tabora Urban,Gongoni,-5.01917,32.80458,Mack Sacco,15/09/2012,,,,,,,
Mbeya,Mbarali,Madibira,-8.20064,34.81865,Madibila Amcos,16/04/1997,,,,,,,
Mbeya,Mbarali,Madibira,-8.20098,34.81797,Madibila Saccos,20/04/2000,,,,,,,
Dodoma,Mpwapwa,Mpwapwa Mjini,-6.34534,36.48644,Madizini Saccos,24/04/1991,,,,,,,
Mbeya,Kyela,Busole,-9.49316,33.68494,Maendeleo Lema Saccos,02/03/2007,,,,,,,
Tabora,Igunga,Igunga,-4.29719,33.87684,Maendeleo Sacco,07/12/2007,,,,,,,
Singida,Manyoni,Manyoni,-5.74694,34.83688,Maendeleo Saccos,25/05/2010,,,,,,,
Tabora,Tabora Urban,Cheyo,-5.03025,32.81534,Maendeleo Ya Vijana,15/06/2002,,,,,,,
Arusha,Arusha,Kati,-3.36174,36.68601,Mafanikio Saccos,14/11/2006,,,,,,,
Iringa,Mufindi,Mafinga,-8.29966,35.29434,Mafinga Saccos,30/04/2003,Yes,,,,Yes,,
Ruvuma,Songea Rural,Magagula,-10.83497,35.28452,Magagula Saccos,28/07/2011,,,,,,,
Manyara,Mbulu,Maghang,-4.15307,35.09525,Maghang Saccos Ltd,01/05/2009,,,,,,,
Kigoma,Kibondo,Kibondo Mjini,-3.58589,30.72223,Magoma Saccos,26/02/2008,,,,,,,
Dar es Salaam,Kinondoni,Magomeni,-6.8073,39.25672,Magomeni Sokoni Saccos,07/11/2004,,,,,,,
Ruvuma,Songea Rural,Wino,-9.89278,35.34801,Mahanje Saccos,15/11/2013,Yes,,Yes,,,,
Kilimanjaro,Rombo,Mahida Holili,-3.35424,37.34002,Mahida Saccos (Dairy),07/09/2010,,,,,,,
Kilimanjaro,Rombo,Mengwe Manda,-3.34997,37.34249,Mahida Teachers Saccos,18/10/2010,,,,,,,
Shinyanga,Kishapu,Kishapu,-3.62013,33.8096,Maisha Finance,04/10/2011,Yes,,Yes,,,Yes,Max Malipo
Tabora,Tabora Urban,Kanyenye,-5.02358,32.81247,Maisha Group,25/05/2009,,,,,,,
Mbeya,Mbarali,Igurusi,-8.77171,33.82811,Majengo Amcos,09/11/1987,,,,,,,
Arusha,Monduli,Engaruka,-3.29565,36.44744,Majengo Saccos,20/09/2005,,,,,,,
Rukwa,Mpanda,Mamba,-7.9646,31.61394,Maji Moto Saccos,03/05/2002,,,,,,,
Iringa,Njombe,Makambako,-8.84761,34.82293,Makambako Saccos,25/11/2006,,,,,,,
Iringa,Njombe,Makambako,-8.84494,34.82358,Makambaku Sokon,25/08/2000,,,,,,,
Arusha,Arusha,Kati,-3.37105,36.67915,Makao Saccos,18/11/2006,,,,,,,
Dodoma,Kondoa,Kondoa Mjini,-4.90736,35.79192,Maki Saccos,29/10/2008,,,,,,,
Shinyanga,Bukombe,Ikunguigazi,-3.25283,31.90803,Makomango Wa Makomango Saccos,20/08/2009,,,,,,,
Dar es Salaam,Kinondoni,Makumbusho,-6.79053,39.25139,Makumbusho Community Saccos,27/03/2007,,,,,,,
Rukwa,Sumbawanga Urban,Katandala,-7.96137,31.61874,Makupa Saccos,21/02/2007,,,,,,,
Mbeya,Kyela,Makwale,-9.41826,33.93991,Makwale Amcos,09/01/1984,,,,,,,
Mbeya,Kyela,Makwale,-9.4182,33.94001,Makwale Saccos,15/05/2007,,,,,,,
Arusha,Arusha,Terrat,-3.40285,36.66661,Makwiro Saccos,28/10/2006,,,,,,,
Arusha,Monduli,Namanga,-2.59987,36.75399,Malide Saccos,15/01/2006,,,,,,,
Tabora,Tabora Urban,Kitete,-5.03349,32.81959,Mama Maendeleo,20/03/2010,Yes,Yes,Yes,,,,
Tabora,Tabora Urban,Kanyenye,-5.02231,32.80738,Mama Pride Sacco,11/12/2010,,,,,,,
Dodoma,Kongwa,Kongwa,-6.1949,36.41434,Mami Saccos,25/03/2003,,,,,,,
Manyara,Babati,Mamire,-4.16086,35.83561,Mamire Teachers Saccos Ltd,17/04/1998,,,,,,,
Kilimanjaro,Rombo,Mamsera,-3.33377,37.14754,Mamsera Bricks Saccos,15/06/2010,Yes,,Yes,,,,
Tabora,Urambo,Urambo,-5.07472,32.07116,Manda Sacco,18/09/2009,,,,,,,
Arusha,Karatu,Mang'ola,-3.52668,35.33328,Mang'Ola Saccos Ltd,27/03/2010,,,,,,,
Mbeya,Rungwe,Bulyaga,-9.25814,33.64484,Manow Saccos - Tukuyu Mjini ( Konde Diocese),05/10/1982,,,,,,,
Tanga,Korogwe,Korogwe,-5.15454,38.44737,Manundu Saccos Korogwe,06/03/2006,,,,,,,
Arusha,Monduli,Longido,-2.64834,36.70302,Manyaito,02/01/2006,,,,,,,
Rukwa,Sumbawanga Urban,Matanga,-7.95834,31.61808,Mapambano Saccos,18/04/2008,Yes,Yes,Yes,,Yes,Yes,POS CRDB
Dar es Salaam,Ilala,Tabata,-6.81571,39.2222,Mapambazuko,11/04/2002,,,,,,,
Mbeya,Mbarali,Mapogoro,-8.80166,34.2227,Mapogolo Saccos,02/08/1997,,,,,,,
Kilimanjaro,Moshi Rural,Mamba Kaskazini,-3.35275,37.33724,Marangu Dairy Saccos,21/04/2011,,,,,,,
Kilimanjaro,Moshi Rural,Marangu Magharibi,-3.28375,37.49659,Marangu Saccos,20/06/2010,,,,,,,
Arusha,Arumeru,Maroroni,-3.43718,36.91372,Maroroni Saccos,10/01/1997,,,,,,,
Pwani,Kisarawe,Masaki,-6.94224,39.01283,Masaki Saccos,28/01/2014,,,,,,,
Dar es Salaam,Ilala,Segerea,-6.84455,39.19768,Masanza Saccos,12/10/2011,,,,,,,
Tabora,Tabora Urban,Kanyenye,-5.02499,32.8118,Mascom,14/09/2008,,,,,,,
Kilimanjaro,Rombo,Ubetu Kahe,-3.0515,37.59549,Mashima Saccos,14/10/1996,Yes,,Yes,,,,
Dar es Salaam,Temeke,Mbagala,-6.90469,39.26938,Masoko Madogo Madogo Saccos,14/08/2011,,,,,,,
Mbeya,Rungwe,Masoko,-9.30938,33.68023,Masoko Saccos Ltd,25/02/2003,,,,,,,
Mbeya,Mbeya Urban,Iyela,-8.91267,33.46151,Masse Saccos Ltd Reg 789,17/02/2001,,,,,,,
Mbeya,Rungwe,Masukulu,-9.40526,33.75112,Masukulu Saccos,22/02/2012,,,,,,,
Arusha,Arusha,Levolosi,-3.36683,36.66095,Matasioi Saccoss,17/09/2000,,,,,,,
Dar es Salaam,Kinondoni,Ubungo,-6.76971,39.19741,Matha Shop,27/01/2014,,,,,,,
Ruvuma,Songea Rural,Matimira,-10.70722,35.80269,Matimira Saccos,04/03/2008,,,,,,,
Ruvuma,Mbinga,Matiri,-10.75765,34.86285,Matiri Saccos,03/06/2007,,,,,,,
Kagera,Bukoba Urban,Mimbeni,-1.32804,31.81192,Matumaini Mapya Saccos Ltd,09/02/2007,,,,,,,
Arusha,Arusha,Engutoto,-3.37587,36.68029,Mawalla SACCO,09/11/2009,,,,,,,
Tabora,Tabora Urban,Cheyo,-5.03527,32.81977,Mawingu Group,19/01/2013,,,,,,,
Tabora,Nzega,Nzega Mjini,-4.21648,33.18457,Mazingira Sacco,03/08/2004,Yes,Yes,Yes,,,,
Iringa,Kilolo,Ilula,-7.67397,36.04185,Mazombu Saccos Ltd,01/01/2008,Yes,,Yes,,,,
Dar es Salaam,Temeke,Mbagala,-6.91679,39.2716,Mbagala Lutheran Saving And Cooperative Society Ltd,05/07/2008,,,,,,,
Dar es Salaam,Temeke,Mbagala,-6.90455,39.26837,Mbagaso Saving And Credit Coperative Society Ltd,06/03/2010,,,,,,,
Mbeya,Mbarali,Rujewa,-8.70816,34.3799,Mbalali Teachers,04/10/2005,,,,,,,
Arusha,Arumeru,Leguruki,-3.37383,36.68827,Mbasha Holdings,01/01/2012,,,,,,,
Ruvuma,Mbinga,Mbinga Urban,-10.94565,34.99781,Mbenga Tearchers Saccos Rvr 445,24/02/2004,,,,,,,
Mbeya,Rungwe,Lwangwa,-9.21297,33.82615,Mbigili Saccos,18/06/2005,,,,,,,
Ruvuma,Mbinga,Mbinga Urban,-10.94661,34.99705,Mbinga Lutheran Saccos Rvr 471,24/02/2005,,,,,,,
Ruvuma,Mbinga,Mbinga Urban,-10.94653,34.99661,Mbinga Women Saccos Reg 481,24/02/1995,,,,,,,
Tabora,Uyui,Ndono,-5.09583,32.63663,Mbola Millenium Saccos,08/04/2009,,,,,,,
Tabora,Tabora Urban,Kanyenye,-5.02255,32.81414,Mbola Sacco,30/04/2004,,,,,,,
Arusha,Arumeru,Usa River,-3.37353,36.84619,Mbomapo Saccos,10/02/2007,,,,,,,
Mbeya,Mbozi,Vwawa,-9.11223,32.93534,Mbozi Teachers Saccos,16/12/1997,,,,,,,
Manyara,Mbulu,Mbulu Mjini,-3.85728,35.54008,Mbulu Tearcher'S Saccos,01/11/1995,,,,,,,
Arusha,Arusha,Sekei,-3.36282,36.70873,Meru Saccos,09/01/2008,,,,,,,
Mbeya,Mbeya Urban,Mbalizi Road,-8.90508,33.43858,Meta Secondary Saccos Mbr 652,08/10/2001,,,,,,,
Lindi,Kilwa,Masoko,-8.92694,39.51254,Mfumwaki Saccos,11/09/2001,,,,,,,
Tabora,Tabora Urban,Cheyo,-5.02256,32.80896,Miasa,03/06/2011,,,,,,,
Dodoma,Mpwapwa,Mpwapwa Mjini,-6.34964,36.48744,Mifigo Saccos,27/09/2007,,,,,,,
Kagera,Bukoba Urban,Nshambya,-1.31786,31.80868,Migera Saccos Ltd,27/06/2008,,,,,,,
Dodoma,Dodoma Rural,Mvumi Mission,-6.38759,35.89946,Mihanga Sacoos,09/12/2009,,,,,,,
Dodoma,Kondoa,Kondoa Mjini,-4.90485,35.77934,Mikopo Office,06/03/2012,,,,,,,
Tabora,Tabora Urban,Kanyenye,-5.02189,32.81482,Millenium Project,26/10/2007,,,,,,,
Tabora,Nzega,Nzega Mjini,-4.21472,33.18391,Millenium Sacco,11/01/2009,,,,,,,
Tabora,Tabora Urban,Kanyenye,-5.02195,32.80755,Millenium Vijana Sacco,06/02/2013,,,,,,,
Singida,Singida Rural,Kinyeto,-4.75529,34.90682,Miminikeni Saccos Ltd,11/02/2013,,,,,,,
Tabora,Tabora Urban,Kanyenye,-5.02978,32.82828,Miml,14/04/2006,,,,,,,
Singida,Singida Rural,Minyughe,-4.97334,34.5438,Minyughe Saccos Ltd,05/09/2004,,,,,,,
Dodoma,Dodoma Urban,Miyuji,-6.12279,35.74577,Mipango Saccos,11/07/2002,,,,,,,
Singida,Singida Rural,Maghojoa,-4.67951,35.01512,Mipilo Saccos Ltd,22/07/1996,,,,,,,
Tabora,Tabora Urban,Tambukareli,-5.01674,32.81288,Misa Sacco Ltd,21/01/2002,Yes,Yes,Yes,,,,
Kagera,Bukoba Rural,Kishanje,-1.25463,31.42036,Misenyi Saccos Bank,09/04/2013,,,,,,,
Singida,Iramba,Mbelekese,-4.60787,34.4649,Misuna Saccos,06/07/1989,,,,,,,
Iringa,Njombe,Makambako,-8.85131,34.82404,Mji Mwema Saccos,23/09/2008,,,,,,,
Kilimanjaro,Moshi Rural,Arusha Chini,-3.42424,37.25315,Mkalongo Saccos,05/09/2007,,,,,,,
Kagera,Biharamulo,Biharamulo Mjini,-2.63403,31.30933,Mkobozi Biharamulo Saccos Ltd,11/12/2005,,,,,,,
Shinyanga,Kahama,Kahama Mjini,-3.8296,32.58024,Mkomboz Saccos,10/09/2009,,,,,,,
Dodoma,Mpwapwa,Mpwapwa Mjini,-6.35059,36.48789,Mkombozi Afya Saccos,14/06/2000,,,,,,,
Tabora,Tabora Urban,Cheyo,-5.02789,32.8184,Mkombozi Group,23/08/2008,Yes,,Yes,,Yes,,
Tabora,Tabora Urban,Ipuli,-5.02783,32.8184,Mkombozi Group Sacco,01/07/2006,Yes,,Yes,,Yes,,
Mtwara,Masasi,Lukuledi,-10.57512,38.80826,Mkombozi Lukuledi,28/05/2012,,,,,,,
Singida,Iramba,Kiomboi,-4.27942,34.40725,Mkombozi Saccos,10/06/2010,,,,,,,
Shinyanga,Kahama,Kahama Mjini,-3.82786,32.58559,Mkombozi Saccos,02/08/2010,,,,,,,
Shinyanga,Kahama,Kahama Mjini,-3.82356,32.60099,Mkombozi Saccos,16/08/2013,Yes,,Yes,,,,
Shinyanga,Bukombe,Masumbwe,-3.64029,32.16803,Mkombozi Saccos,08/08/2012,,,,,,,
Shinyanga,Meatu,Mwanhuze,-3.52749,34.3149,Mkombozi Saccos,17/12/2013,,,,,,,
Kilimanjaro,Moshi Rural,Arusha Chini,-3.41812,37.21668,Mkombozi Saccos,14/04/2004,,,,,,,
Mbeya,Rungwe,Isongole,-9.04486,33.59637,Mkombozi Saccos - Mbeya One,03/06/2011,,,,,,,
Dodoma,Kondoa,Mondo,-5.00431,35.93503,Mkombozi Saccoss,04/11/2009,,,,,,,
Dodoma,Kondoa,Kondoa Mjini,-4.90202,35.77405,Mkombozi Soko Kuu Saccos,09/06/2003,,,,,,,
Dodoma,Kondoa,Kondoa Mjini,-4.90666,35.78569,Mkombozi Soko Saccos,09/01/2005,,,,,,,
Tanga,Korogwe,Korogwe,-5.16062,38.45309,Mkonge Umoja Saccos,20/07/2007,,,,,,,
Mara,Bunda,Bunda,-2.02125,33.87222,Mkonge Umoja Saccos,20/07/2007,,,,,,,
Arusha,Arusha,Kati,-3.37273,36.6877,Mkonoo Saccos,09/11/2003,,,,,,,
Dodoma,Kongwa,Pandambili,-6.08798,36.73538,Mkukupa Saccos,23/08/2005,,,,,,,
Arusha,Arusha,Kimandolu,-3.36789,36.70716,Mkukute Saccos,07/12/2004,,,,,,,
Pwani,Mkuranga,Mkuranga,-7.12103,39.20548,Mkuranga Teachers Saccos,18/05/2010,,,,,,,
Dodoma,Kongwa,Mlali,-6.29693,36.75131,Mlali Saccos,06/10/2003,Yes,,Yes,,,,
Rukwa,Sumbawanga Urban,Kizwite,-7.96862,31.61537,Mlanda Saccos,05/04/2009,,,,,,,
Arusha,Monduli,Monduli Mjini,-3.30301,36.44588,Mliman Ngarash Saccos,03/12/2000,,,,,,,
Dar es Salaam,Kinondoni,Ubungo,-6.78085,39.20591,Mlimani Saccos,26/11/2001,,,,,,,
Tabora,Tabora Urban,Kanyenye,-5.02314,32.80941,Mmea,01/11/2003,,,,,,,
Dodoma,Kondoa,Mnenia,-4.65052,35.84962,Mnenia Saccos Ltd,21/07/2008,,,,,,,
Dodoma,Kondoa,Mondo,-5.00856,35.93485,Mondo Saccos,19/04/2005,,,,,,,
Arusha,Monduli,Engutoto,-3.29529,36.4472,Monduli Teachers,21/02/2014,,,,,,,
Rukwa,Sumbawanga Urban,Senga,-7.9613,31.61951,Moravian Rukwa Saccos,07/07/2012,,,,,,,
Kilimanjaro,Moshi Urban,Bondeni,-3.35558,37.34022,Moshi Islamic Saving And Credit Cooperative,04/05/1995,,,,,,,
Kilimanjaro,Rombo,Tarakea Motamburu,-3.35491,37.33982,Motamburu Madukani Makoroboi Saccos,25/01/2010,Yes,,Yes,,,,
Tabora,Tabora Urban,Tambukareli,-5.02381,32.81099,Moto Wa Elia,10/07/2003,,,,,,,
Arusha,Arumeru,Akheri,-3.37943,36.7716,Mount Meru Flower Saccos,12/01/2006,,,,,,,
Arusha,Arumeru,Kimnyaki,-3.3665,36.69541,Mount Meru Hospital Saccos,09/11/2008,,,,,,,
Mbeya,Rungwe,Mpuguso,-9.32431,33.65767,Mpuguso Saccos,24/02/2004,,,,,,,
Rukwa,Sumbawanga Rural,Kaengesa,-7.95776,31.61952,Mpui Saccos Ltd,18/12/2010,,,,,,,
Mbeya,Rungwe,Mpuguso,-9.32424,33.6578,Mpukili Amcos,22/02/2003,,,,,,,
Kilimanjaro,Hai,Siha Mashariki,-3.33594,37.14967,Mpunga Milling Saccos,28/10/2010,,,,,,,
Dodoma,Mpwapwa,Mpwapwa Mjini,-6.34589,36.48671,Mpwapwa Camcellors Saccos,21/06/2005,,,,,,,
Dodoma,Mpwapwa,Mpwapwa Mjini,-6.34948,36.48658,Mpwapwa Credit And Cooperative Society,19/05/2010,,,,,,,
Dodoma,Mpwapwa,Mpwapwa Mjini,-6.34562,36.4862,Mpwapwa Teachers Saccos,09/07/1998,,,,,,,
Arusha,Arumeru,Makiba,-3.36552,36.68479,Ms Tcdc Staff,04/12/1994,,,,,,,
Singida,Singida Rural,Maghojoa,-4.65124,35.03537,Msange Saccos,28/06/2011,,,,,,,
Arusha,Arusha,Kati,-3.3694,36.69396,Mshengeli Saccos,15/07/2007,,,,,,,
Singida,Manyoni,Manyoni,-5.74997,34.82826,Mshikamano,23/01/2011,,,,,,,
Mbeya,Kyela,Kyela Mjini,-9.5972,33.86515,Mshikamano Saccos,25/02/2006,,,,,,,
Manyara,Babati,Magugu,-3.99031,35.786,Mshikamano Saccos ( Magugu),04/04/2005,,,,,,,
Kilimanjaro,Moshi Rural,Mamba Kusini,-3.36002,37.33977,Mshikamano Saccos (Gallery),17/02/2012,Yes,,Yes,,,,
Mbeya,Mbeya Rural,Ilembo,-9.20324,33.349,Mshikamano Saccos Ilembo,12/01/2003,Yes,,Yes,,,,
Singida,Singida Rural,Ihanja,-5.04655,34.67785,Mshikamano Saccos Ltd,06/04/2010,,,,,,,
Kagera,Biharamulo,Biharamulo Mjini,-2.636,31.31131,Mshikamano Saccos Ltd,28/02/2013,Yes,Yes,Yes,,,,
Kilimanjaro,Moshi Rural,Kilema Kaskazini,-3.33832,37.37465,Mshikamano Sccoas (Butchery),12/10/2003,,,,,,,
Dodoma,Mpwapwa,Mpwapwa Mjini,-6.34864,36.48736,Mshikamono Baraza Saccos,28/05/2003,,,,,,,
Mbeya,Mbozi,Msia,-9.11115,32.9346,Msia Saccos,04/10/2011,,,,,,,
Ruvuma,Namtumbo,Msimdo,-10.43951,35.78764,Msindo Saccos,10/01/2003,,,,,,,
Shinyanga,Bukombe,Runzewe,-3.39125,31.62817,Msonga Saccos,02/08/2010,,,,,,,
Rukwa,Sumbawanga Urban,Mazwi,-7.96113,31.60558,Mtaji Rukwa Saccos,23/03/2008,,,,,,,
Dodoma,Dodoma Urban,Madukani,-6.17754,35.74668,Mtaji Wa Masikin Saccos,19/06/2003,,,,,,,
Singida,Singida Urban,Mtamaa,-4.929,34.65793,Mtamaa Saccos,01/05/2005,,,,,,,
Tabora,Tabora Urban,Kanyenye,-5.02351,32.80994,Mtamo Sacco,14/07/2005,,,,,,,
Dar es Salaam,Temeke,Mbagala,-6.91445,39.2727,Mtayba Saccos Ltd,15/12/2013,,,,,,,
Mbeya,Mbeya Urban,Iyunga,-8.93956,33.41769,Mtc Saccos,02/04/1999,,,,,,,
Rukwa,Sumbawanga Urban,Milanzi,-7.96371,31.62182,Mtingwa Tusaidiane,02/07/2012,,,,,,,
Singida,Singida Rural,Mtinko,-4.54941,34.84369,Mtinko Saccos,13/05/1985,,,,,,,
Singida,Singida Rural,Mtinko,-4.5491,34.8438,Mtinko Saccos Ltd,10/04/2008,,,,,,,
Kilimanjaro,Hai,Hai Mjini,-3.32368,37.34999,Mtiyovu Saccos,05/08/2009,Yes,Yes,Yes,,,,
Tabora,Tabora Urban,Mbugani,-5.01922,32.8047,Mtl,19/08/2006,,,,,,,
Arusha,Monduli,Mto wa Mbu,-3.37277,35.85439,Mto Wa Mbu Saccos,01/01/2010,,,,,,,
Dar es Salaam,Temeke,Mtoni,-6.87356,39.27333,Mtoni Lutheran Church,21/02/1994,,,,,,,
Dar es Salaam,Temeke,Mtoni,-6.86785,39.27601,Mtoni Vicoba Group,15/08/2008,Yes,Yes,Yes,,Yes,,
Ruvuma,Songea Urban,Songea Mjini,-10.67836,35.65278,Muccos Bs Ruvuma,17/11/2002,,,,,,,
Kilimanjaro,Hai,Masama Mashariki,-3.2507,37.19401,Mudio Saccos,11/01/2004,Yes,Yes,Yes,,Yes,,
Singida,Iramba,Mwangeza,-4.1102,34.82151,Muhangu Saccos Ltd,19/03/2008,,,,,,,
Mara,Musoma Urban,Mukendo,-1.50013,33.80976,Mukendo,12/12/2013,,,,,,,
Kagera,Muleba,Muleba,-1.84122,31.65657,Muleba Teachers  Saccos Ltd,08/04/2011,,,,,,,
Kagera,Muleba,Muleba,-1.84242,31.65287,Muleba Women Saccos Ltd,19/09/2006,,,,,,,
Singida,Singida Rural,Mungaa,-4.96824,34.86231,Mungaa Saccos,17/07/2002,,,,,,,
Singida,Singida Rural,Mungaa,-4.9674,34.86502,Mungaa Saccos Ltd,10/05/2005,,,,,,,
Singida,Singida Rural,Sepuka,-4.75658,34.5825,Mungua Saccos Ltd,24/04/2010,,,,,,,
Dar es Salaam,Kinondoni,Kinondoni,-6.78898,39.26967,Mupo Saccos,18/05/2011,,,,,,,
Tabora,Tabora Urban,Kanyenye,-5.02876,32.81537,Mushi Sacco,27/03/2008,Yes,Yes,Yes,,Yes,,
Kagera,Muleba,Kamachumu,-1.62037,31.61967,Muungano Kamachumu Saccos Ltd,12/04/2001,,,,,,,
Kilimanjaro,Moshi Rural,Arusha Chini,-3.45404,37.28334,Muungano Kikavuchini Saccos,30/05/2003,,,,,,,
Tabora,Urambo,Kaliua,-5.05883,31.79518,Muungano Sacco,25/11/2007,,,,,,,
Dodoma,Kondoa,Kolo,-4.73767,35.82926,Muungano Saccos,01/12/2008,,,,,,,
Mbeya,Mbarali,Igurusi,-8.82848,33.85658,Muungano Saccos,23/07/2003,,,,,,,
Manyara,Babati,Mamire,-4.15896,35.83954,Muungano Saccos Ltd,27/05/2007,,,,,,,
Tabora,Tabora Urban,Kanyenye,-5.0245,32.81067,Muungano Tabora,10/05/2005,,,,,,,
Kigoma,Kasulu,Muyama,-4.32086,30.0656,Muungano Taranta Saccos,02/11/2010,,,,,,,
Dar es Salaam,Ilala,Segerea,-6.84467,39.19234,Muungano Women Segerea,15/04/2011,,,,,,,
Kilimanjaro,Hai,Machame Kaskazini,-3.33001,37.14554,Muvimaha Talanta Saccos,13/08/2000,,,,,,,
Mara,Musoma Urban,Nyakato,-1.50228,33.80346,Muviwamu Saccos,11/03/2013,,,,,,,
Shinyanga,Kahama,Nyihogo,-3.83403,32.5945,Muvuma Saccos,25/06/2012,,,,,,,
Mwanza,Nyamagana,Mirongo,-2.51667,32.90485,Muwakapa Saccos,14/12/2007,,,,,,,
Mwanza,Misungwi,Ukiriguru,-2.5166,32.90506,Muwakapa Saccos Ltd,06/07/2010,,,,,,,
Dar es Salaam,Kinondoni,Ubungo,-6.79347,39.21239,Muwasida Saccos,04/08/2008,,,,,,,
Dodoma,Kongwa,Mkoka,-5.81449,36.43683,Mviwata Saccos,17/11/2013,,,,,,,
Shinyanga,Kahama,Kahama Mjini,-3.82978,32.58396,Mvumo Sacos,10/05/2008,,,,,,,
Arusha,Arusha,Engutoto,-3.40431,36.70381,Mvuwo Saccos,21/11/2004,,,,,,,
Mwanza,Nyamagana,Pamba,-2.52289,32.90329,Mwaciwote Saccos Limited,20/01/2011,,,,,,,
Kagera,Chato,Chatokati,-2.63834,31.76715,Mwambao Saccos,06/12/2005,Yes,,Yes,,,,
Tabora,Tabora Urban,Kanyenye,-5.01787,32.80397,Mwambata,03/08/2003,,,,,,,
Mbeya,Kyela,Katumba Songwe,-9.68755,33.89721,Mwamko Saccos,10/12/2006,,,,,,,
Morogoro,Kilombero,Ifakara,-8.13545,36.68156,Mwananchi Ifakara Saccos Ltd,25/06/2012,,,,,,,
Dar es Salaam,Ilala,Tabata,-6.81644,39.22161,Mwananchi Saccos,05/08/2005,,,,,,,
Singida,Iramba,Mwanga,-4.27286,34.77454,Mwanga Saccos Ltd,12/04/1995,,,,,,,
Dodoma,Kongwa,Mkoka,-5.81466,36.4364,Mwangaza Saccos,09/04/2003,,,,,,,
Kilimanjaro,Moshi Rural,Arusha Chini,-3.36743,37.3204,Mwangaza Saccos,30/01/2008,Yes,,Yes,,,,
Dar es Salaam,Kinondoni,Kawe,-6.73343,39.22086,Mwangaza Saccos Kawe,18/06/2009,,,,,,,
Mbeya,Mbeya Urban,Maanga,-8.91038,33.45622,Mwanjelwa Saccos,26/11/2003,,,,,,,
Singida,Singida Urban,Mwankoko,-4.86328,34.63913,Mwankoko Saccos Ltd,09/09/2009,,,,,,,
Mwanza,Nyamagana,Pamba,-2.52255,32.90496,Mwanza Saccos Bank Ltd,11/01/2011,Yes,Yes,Yes,,Yes,,
Dodoma,Dodoma Urban,Viwandani,-6.17726,35.74906,Mwashita Saccos,09/04/2012,,,,,,,
Mbeya,Rungwe,Kandete,-9.14838,33.79228,Mwelutga Saccos,18/09/2010,,,,,,,
Mbeya,Mbarali,Ubaruku,-8.67531,34.30786,Mwendamtitu Saccos,23/07/2007,,,,,,,
Tabora,Tabora Urban,Kanyenye,-5.02293,32.80916,Mwenge Economic,21/11/2003,,,,,,,
Tabora,Tabora Urban,Cheyo,-5.02145,32.81651,Mwenge Sacco,03/08/2003,,,,,,,
Tabora,Tabora Urban,Kanyenye,-5.0239,32.81237,Mwenge Sanaa,03/10/2005,,,,,,,
Tabora,Tabora Urban,Kanyenye,-5.0236,32.81243,Mwenge Trida,05/07/2001,,,,,,,
Tabora,Tabora Urban,Kanyenye,-5.02346,32.80958,Mweto Sacco,03/08/2006,,,,,,,
Shinyanga,Shinyanga Urban,Shinyanga Mjini,-3.67108,33.42423,Mwiganwa Saccoss,04/11/2011,,,,,,,
Arusha,Arusha,Kati,-3.37199,36.68301,Nadosoito Saccos,23/07/2003,,,,,,,
Ruvuma,Namtumbo,Namabengo,-10.55564,35.8645,Namabengo Saccos,06/11/2007,,,,,,,
Rukwa,Nkansi,Namanyere,-7.96769,31.61643,Namanyere Farmers,02/11/2009,,,,,,,
Lindi,Nachingwea,Nambambo,-10.37402,38.76181,Nambambo Saccos Limited,04/02/2005,,,,,,,
Arusha,Arusha,Themi,-3.40366,36.70371,Nane Nane Women Saccos,24/02/2010,,,,,,,
Arusha,Arusha,Engutoto,-3.40308,36.70368,Nane Saccos,19/10/2007,,,,,,,
Arusha,Arusha,Themi,-3.40178,36.70355,Nanenane Saccos,01/11/2007,,,,,,,
Arusha,Ngorongoro,Digodago,-2.15693,35.70008,Nanenane Saccos,15/01/2012,,,,,,,
Kilimanjaro,Rombo,Nanjala Reha,-3.35649,37.33436,Nanjala Milling Saccos,14/10/2010,,,,,,,
Kilimanjaro,Rombo,Nanjala Reha,-3.01913,37.57519,Nanjara Reha Saccos,10/03/2005,Yes,,Yes,,,,
Ruvuma,Namtumbo,Namtumbo,-10.47243,36.12996,Narwi Saccos,01/12/2001,,,,,,,
Shinyanga,Shinyanga Urban,Ndala,-3.67014,33.41649,Ndala Tunakopesha Sacoos,30/09/2010,,,,,,,
Mbeya,Rungwe,Isongole,-9.06866,33.57582,Ndanto Agape - Ndaga,05/12/2013,,,,,,,
Kagera,Ngara,Ngara Mjini,-2.50765,30.66138,Ndcw Saccos Ltd,28/01/2001,,,,,,,
Mbeya,Rungwe,Malindo,-9.25774,33.62823,Ndembela Saccos,22/02/2010,,,,,,,
Arusha,Arumeru,Makiba,-3.37242,36.69284,Ndombo Saccos,03/10/2008,,,,,,,
Dar es Salaam,Kinondoni,Magomeni,-6.80484,39.25108,Ndugunbi Community Sccoss,18/02/2014,,,,,,,
Mbeya,Mbeya Urban,Ruanda,-8.91089,33.46217,Neema Saccos Mbr 636,15/02/1999,,,,,,,
Arusha,Arusha,Kati,-3.37493,36.69882,New Arusha Sacco,18/03/1998,,,,,,,
Ruvuma,Tunduru,Lukumbule,-10.67797,35.6466,New Muungano Saccos,19/04/2010,,,,,,,
Arusha,Arusha,Sokon I,-3.40443,36.68855,New Paradise Saccos,22/12/2010,,,,,,,
Lindi,Lindi Urban,Msinjahili,-10.00076,39.71588,New Vijana Lindi Saccos,01/11/2011,,,,,,,
Ruvuma,Mbinga,Myangayanga,-10.95326,34.9005,Ngaka Saccos,25/02/2002,,,,,,,
Kilimanjaro,Moshi Urban,Msaranga,-3.35056,37.37726,Ng'Ambo Saccos,22/05/2001,Yes,,Yes,,,,
Arusha,Monduli,Engutoto,-3.29654,36.44715,Ngarash Saccos,21/11/2006,,,,,,,
Arusha,Arusha,Kati,-3.36559,36.68462,Ngeela Saccos,15/10/2008,,,,,,,
Singida,Singida Rural,Ngimu,-4.75546,35.08864,Ngimu Saccos Ltd,15/05/2003,,,,,,,
Iringa,Iringa Urban,Kihesa,-7.75053,35.71346,Ngome Saccos,14/06/2004,,,,,,,
Arusha,Arumeru,Maji ya Chai,-3.32934,36.91744,Ngurudoto Saccos,10/06/2011,,,,,,,
Arusha,Arumeru,Kiranyi,-3.36422,36.69602,Ngurumo Saccos,04/12/2008,,,,,,,
Mbeya,Mbarali,Ubaruku,-8.67463,34.3062,Nguvu Kazi Mwanavala,13/08/2000,,,,,,,
Arusha,Arusha,Kati,-3.36947,36.69418,Nguvu Moja Saccos,14/05/2007,,,,,,,
Arusha,Arusha,Engutoto,-3.41841,36.65636,Nib Microcredit,14/12/2004,,,,,,,
Rukwa,Nkansi,Namanyere,-7.50439,31.04096,Nkasi Teachers Saccos,07/03/2003,,,,,,,
Rukwa,Nkansi,Namanyere,-7.96138,31.61513,Nkasi Warkers,07/08/2005,,,,,,,
Arusha,Arumeru,Makiba,-3.37013,36.69554,Nkoanrua Saccos,04/10/2006,,,,,,,
Arusha,Arumeru,Usa River,-3.37057,36.78735,Nkwaranga Workers Saccos,05/10/2009,,,,,,,
Arusha,Arusha,Kati,-3.36924,36.69386,Nofia Saccos,15/10/2003,,,,,,,
Arusha,Arumeru,Bangata,-3.36111,36.69212,Nofia Saccos,17/10/2003,,,,,,,
Arusha,Arusha,Kati,-3.37479,36.68847,Nrc Staff Saccos,13/11/2008,,,,,,,
Kilimanjaro,Hai,Machame Magharibi,-3.3534,37.34018,Nronga Bodaboda Saccos,16/09/2012,,,,,,,
Kilimanjaro,Hai,Machame Magharibi,-3.19676,37.21656,Nronga Saccos,06/04/2003,,,,,,,
Kilimanjaro,Hai,Machame Kusini,-3.26723,37.22793,Nshara Saccos,27/04/2010,,,,,,,
Dar es Salaam,Temeke,Chang'ombe,-6.83941,39.25606,Nssf Saccos,23/01/2013,,,,,,,
Iringa,Njombe,Wanging'ombe,-8.8591,33.63688,Nuru Saccos,28/07/2002,,,,,,,
Kigoma,Kigoma Urban,Maweni,-4.90483,29.65595,Nyakitonto Youth Development Saccos,07/04/2013,,,,,,,
Singida,Iramba,Kinyangili,-4.45045,34.6243,Nyota Njema Saccos,10/02/1995,,,,,,,
Kagera,Muleba,Nshamba,-1.79862,31.5468,Obumwe T Saccos Ltd,21/05/2012,,,,,,,
Dar es Salaam,Ilala,Ukonga,-6.88403,39.17044,Oiko Sacco,26/02/2002,,,,,,,
Tabora,Tabora Urban,Chemchem,-5.01964,32.80477,Old Is Gold,14/07/2002,,,,,,,
Kilimanjaro,Moshi Rural,Old Moshi East,-3.35457,37.33675,Old Moshi East Teachers Saccos,03/11/2011,,,,,,,
Dodoma,Kondoa,Kondoa Mjini,-4.90236,35.77496,Omuado Saccos,24/09/2003,,,,,,,
Arusha,Arusha,Kimandolu,-3.36735,36.71271,One Familly Saccos,15/11/2012,Yes,,Yes,,,,
Arusha,Arusha,Elerai,-3.36309,36.67246,One Family Saccos,06/03/2013,,,,,,,
Tabora,Sikonge,Sikonge,-5.62273,32.75035,Orphan Support,19/09/2007,,,,,,,
Tabora,Tabora Urban,Cheyo,-5.02266,32.80912,Orphans,05/11/2011,Yes,Yes,Yes,,Yes,,
Tabora,Tabora Urban,Kanyenye,-5.03369,32.81968,Orphans Sacco,18/11/2007,Yes,,Yes,,,,
Dar es Salaam,Temeke,Charambe,-6.9237,39.26867,Orwindo Saccos Ltd,20/06/2006,,,,,,,
Arusha,Monduli,Longido,-2.74007,36.701,Osotwa Saccos,10/02/2007,,,,,,,
Arusha,Monduli,Namanga,-2.55086,36.78814,Ossotwa Namanga,10/09/2012,,,,,,,
Dar es Salaam,Kinondoni,Kinondoni,-6.78385,39.26463,Out Saccos,20/02/2001,,,,,,,
Tabora,Tabora Urban,Kanyenye,-5.02087,32.80567,Paaris Sacco,16/09/2010,,,,,,,
Dodoma,Kondoa,Pahi,-4.71585,35.91597,Pahi Ward Saccos Ltd,30/12/2003,,,,,,,
Mbeya,Kyela,Kyela Mjini,-9.6061,33.86894,Pakati Saccos,10/01/2003,,,,,,,
Arusha,Arumeru,Makiba,-3.3679,36.68508,Pallot Saccos,04/01/2007,,,,,,,
Kilimanjaro,Moshi Rural,Uru Mashariki,-3.33137,37.3469,Pamoja Twaweza Womens (Saccos) Centre,20/04/2010,Yes,Yes,Yes,,,,
Kilimanjaro,Moshi Rural,Uru South Mawela,-3.35671,37.33194,Pamoja Women Cattering Services,14/05/2012,,,,,,,
Mbeya,Mbeya Rural,Bonde la Usongwe,-8.96224,33.24798,Pandahili Saccos Ltd,02/07/2004,,,,,,,
Arusha,Arumeru,Akheri,-3.37292,36.78677,Patandi Saccos,08/05/2013,,,,,,,
Tabora,Tabora Urban,Isevya,-5.01661,32.82145,Patner Sacco,21/06/2010,Yes,,Yes,,,,
Mwanza,Kwimba,Mantare,-2.69988,33.0019,Pavanna Saccos Ltd,01/08/2013,,,,,,,
Ruvuma,Songea Rural,Maposeni,-10.63459,35.46218,Peawa Saccos,26/01/2008,,,,,,,
Arusha,Arumeru,Moivo,-3.35262,36.69625,Petu Saccos,10/01/2009,,,,,,,
Kagera,Karagwe,Kayanga,-1.53421,31.15326,Platinum Credit Ltd,08/12/2013,,,,,,,
Kagera,Karagwe,Kaisho,-1.27172,30.68615,Platinum Credit Ltd,24/02/2013,,,,,,,
Kagera,Bukoba Urban,Birere,-1.32904,31.8134,Platinum Credit Ltd,24/05/2012,,,,,,,
Dar es Salaam,Ilala,Kivukoni,-6.81197,39.2854,Platnum Credit Limited,10/03/2010,,,,,,,
Tabora,Tabora Urban,Kanyenye,-5.01946,32.80471,Platue,17/09/2010,,,,,,,
Tabora,Tabora Urban,Kanyenye,-5.02374,32.81005,Pletnum,13/07/2011,,,,,,,
Arusha,Arusha,Kati,-3.36929,36.69243,Police Mkoa Saccos,10/08/2001,,,,,,,
Arusha,Arumeru,Leguruki,-3.37108,36.69528,Police Saccos,29/12/2005,,,,,,,
Tabora,Tabora Urban,Kanyenye,-5.02535,32.81154,Polis Jamii,04/10/2011,,,,,,,
Tabora,Tabora Urban,Kanyenye,-5.02343,32.81021,Pos Sacco Group,06/05/2013,Yes,,Yes,,,,
Arusha,Arusha,Kati,-3.372,36.69348,Postal And Ttcl Workers,12/10/1996,,,,,,,
Arusha,Arusha,Kati,-3.36896,36.70236,Prestige Clusine,26/11/2013,,,,,,,
Tabora,Sikonge,Sikonge,-5.61901,32.74565,Pretoria,10/11/2008,,,,,,,
Arusha,Arusha,Sombetini,-3.39392,36.658,Pride,01/12/2003,,,,,,,
Ruvuma,Songea Urban,Songea Mjini,-10.67852,35.65286,Pride Songea,17/11/1998,,,,,,,
Kigoma,Kibondo,Kibondo Mjini,-3.58435,30.71813,Pride Tanzania,01/12/2012,,,,,,,
Kagera,Muleba,Muleba,-1.84018,31.65746,Pride Tz Ltd,16/04/2013,,,,,,,
Dar es Salaam,Kinondoni,Mwananyamala,-6.78534,39.25576,Prinmat Saccos Ltd,10/03/2009,,,,,,,
Tabora,Tabora Urban,Cheyo,-5.03498,32.8201,Prosper,15/11/2006,Yes,Yes,Yes,,,,
Tabora,Tabora Urban,Kanyenye,-5.01957,32.806,Prosper,10/09/2003,,,,,,,
Tabora,Nzega,Nzega Mjini,-4.21501,33.18425,Prosper,04/08/2007,,,,,,,
Singida,Singida Rural,Puma,-5.00484,34.75756,Puma Saccos,05/08/1995,,,,,,,
Tabora,Tabora Urban,Kanyenye,-5.02363,32.81,RahmaaS,22/05/2006,Yes,Yes,Yes,,Yes,,
Dar es Salaam,Ilala,Ukonga,-6.87814,39.16747,Rc Saccos,24/06/2013,,,,,,,
Kagera,Bukoba Urban,Hamgende,-1.32704,31.80602,Rc Saccos Ltd,20/06/2012,Yes,,Yes,,,,
Kigoma,Kibondo,Kibondo Mjini,-3.59409,30.72139,Redeso Saccos,26/02/2011,,,,,,,
Arusha,Arusha,Kati,-3.38347,36.71104,Remnant Saccos,04/11/2008,,,,,,,
Dar es Salaam,Ilala,Ukonga,-6.87839,39.16747,Revival Church Saccos,24/07/2007,,,,,,,
Manyara,Kiteto,Kibaya,-5.315,36.56588,Revival Church Saccos,28/12/2007,,,,,,,
Mbeya,Rungwe,Bulyaga,-9.25698,33.64419,Revival Church Saccos - Tukuyu Branch,20/02/2002,,,,,,,
Dar es Salaam,Temeke,Mbagala,-6.89715,39.26814,Revival Church Saccos Ltd,22/07/2008,,,,,,,
Tabora,Tabora Urban,Kalunde,-5.02258,32.81404,Ridia Sacco,25/10/2005,,,,,,,
Tabora,Tabora Urban,Kanyenye,-5.02962,32.80775,Rnl Saccos,03/11/2007,,,,,,,
Mbeya,Rungwe,Bulyaga,-9.25751,33.64538,Rstg Saccos / Re.No. 110-130-910 Tukuyu Branch,14/03/2008,,,,,,,
Mbeya,Rungwe,Lwangwa,-9.2684,33.81178,Rstga Saccos,10/08/2007,,,,,,,
Mbeya,Rungwe,Katumba,-9.21976,33.64267,Rstga Saccos,02/02/1990,,,,,,,
Mbeya,Mbozi,Ruanda,-9.01649,33.00415,Ruanda Saccos,02/05/2009,,,,,,,
Lindi,Ruangwa,Ruangwa,-10.06508,38.92725,Ruangwa Sacco-Bank Limited,10/02/2000,,,,,,,
Lindi,Ruangwa,Ruangwa,-10.0647,38.92751,Ruangwa Workers Savings And Credit Cooperative Society,10/06/2003,,,,,,,
Kagera,Muleba,Kashasha,-1.75021,31.62246,Rubya Hospital Saccos Shop,26/01/2012,Yes,,Yes,,Yes,,
Ruvuma,Mbinga,Mbamba Bay,-11.28654,34.80285,Ruekehi Saccos Rvr 498,26/02/2000,,,,,,,
Kigoma,Kigoma Rural,Uvinza,-5.10967,30.39084,Rukundo Saccos,02/09/1997,,,,,,,
Shinyanga,Bukombe,Ikunguigazi,-3.25139,31.90855,Rulembera Saccos,20/11/2010,,,,,,,
Mbeya,Rungwe,Bulyaga,-9.25977,33.64324,Rumbia Amcos,20/01/2013,,,,,,,
Mbeya,Rungwe,Bulyaga,-9.25742,33.64559,Rungwe Employees Saccos Tukuyu Branch,25/02/2002,,,,,,,
Mbeya,Rungwe,Bulyaga,-9.25794,33.64603,Rungwe Vijana Saccos,29/11/2013,,,,,,,
Shinyanga,Bukombe,Runzewe,-3.33803,31.52258,Runzewe Tunakopesha Saccos,15/03/2010,,,,,,,
Lindi,Ruangwa,Ruangwa,-10.08236,38.94081,Rutesco,05/02/2006,,,,,,,
Tabora,Tabora Urban,Kanyenye,-5.0233,32.80917,S.S.N,20/04/2006,Yes,Yes,Yes,,,,
Tabora,Tabora Urban,Mbugani,-5.0192,32.80459,Saah Saccos,18/07/2004,,,,,,,
Arusha,Arusha,Kati,-3.37093,36.69361,Saba General Saccos,16/11/2005,,,,,,,
Mara,Bunda,Bunda,-2.02101,33.87198,Saccos,16/01/2013,,,,,,,
Mwanza,Ilemela,Igoma,-2.54392,32.97794,Saccos,08/02/2011,,,,,,,
Shinyanga,Bukombe,Ushirombo,-3.46686,31.88949,Saccos Kasi Mpya,14/09/2006,,,,,,,
Ruvuma,Songea Rural,Lilambo,-10.67046,35.53155,Saccos Lilambo,01/01/2013,,,,,,,
Ruvuma,Namtumbo,Namtumbo,-10.4732,36.13008,Saccos Ya Waalimu,11/11/1998,,,,,,,
Mbeya,Ileje,Isongole,-9.47768,33.18205,Saccos Ya Wakulima,10/08/1996,,,,,,,
Mbeya,Mbozi,Itaka,-9.11122,32.93318,Saidia Saccos,21/06/2007,,,,,,,
Arusha,Monduli,Engaruka,-3.38207,36.70933,Saiko Saccos,03/07/2005,,,,,,,
Rukwa,Sumbawanga Urban,Katandala,-7.97096,31.62221,Saint Aggrey Watumishi Saccos,12/02/2014,,,,,,,
Arusha,Monduli,Engaruka,-3.34333,36.64509,Saitaa Saccos,09/12/2002,,,,,,,
Dar es Salaam,Ilala,Ukonga,-6.87771,39.16864,Sali Saccos,01/04/2013,,,,,,,
Tabora,Tabora Urban,Kanyenye,-5.01774,32.81465,Salma Sacco,05/10/2011,,,,,,,
Kilimanjaro,Same,Same Mjini,-4.0657,37.73894,Same Teacher'S Saccos,02/04/2006,,,,,,,
Tabora,Tabora Urban,Kanyenye,-5.02338,32.80957,Sameta,02/07/2010,,,,,,,
Arusha,Arumeru,Mateves,-3.38519,36.71723,Sangaitoti Saccos,01/12/2006,,,,,,,
Dodoma,Kondoa,Bereko,-4.44985,35.73977,Sapumbe Saccos,09/11/2003,,,,,,,
Arusha,Arusha,Kati,-3.37118,36.69457,Sari Saccos,14/10/2003,,,,,,,
Arusha,Arusha,Kati,-3.37458,36.68894,Sari Staff Saccos,13/08/2009,,,,,,,
Arusha,Arusha,Kati,-3.37279,36.69261,Sawote Saccos,16/01/2014,,,,,,,
Rukwa,Sumbawanga Urban,Katandala,-7.95897,31.61669,Sayuni Saccos,12/02/2014,,,,,,,
Tabora,Tabora Urban,Ipuli,-5.01672,32.8247,Sects,15/10/2009,,,,,,,
Tabora,Tabora Urban,Isevya,-5.01673,32.81269,Seda,03/12/2011,,,,,,,
Arusha,Arusha,Kati,-3.38344,36.71125,Seda Microfinance,01/12/2006,,,,,,,
Dodoma,Kondoa,Kondoa Mjini,-4.9053,35.78466,Seda Saccos,04/02/1997,,,,,,,
Dar es Salaam,Kinondoni,Magomeni,-6.80767,39.25982,Sedeo,27/02/2009,,,,,,,
Dar es Salaam,Kinondoni,Magomeni,-6.80778,39.25975,Sedeo Saccos,21/01/2011,,,,,,,
Dar es Salaam,Ilala,Ukonga,-6.87393,39.19232,Sedeso Saccos,01/01/2010,,,,,,,
Dar es Salaam,Ilala,Ilala,-6.82913,39.2539,Sedit,19/02/2005,Yes,,Yes,,,,
Shinyanga,Kahama,Segese,-3.53382,32.4203,Segese Tunakopesha Saccos,27/11/2013,,,,,,,
Singida,Singida Rural,Sepuka,-4.75302,34.53155,Sepuka Saccos,24/12/2004,Yes,,Yes,,,Yes,
Arusha,Arumeru,Akheri,-3.38047,36.79256,Serena Mounten Saccos,19/02/2014,,,,,,,
Arusha,Arusha,Levolosi,-3.36885,36.69203,Shaloom Saccos,21/11/2006,,,,,,,
Mara,Musoma Urban,Nyakato,-1.50371,33.8033,Shammah Saccos,17/01/2010,,,,,,,
Dar es Salaam,Kinondoni,Sinza,-6.79484,39.22,Shekilango Society Ltd,10/05/2008,,,,,,,
Shinyanga,Kahama,Nyihogo,-3.83279,32.59627,Shirika La Muvuma Saccos,15/05/2012,,,,,,,
Shinyanga,Kahama,Nyihogo,-3.83419,32.59458,Shirika La Mvuma Saccos,26/11/2009,,,,,,,
Arusha,Arusha,Levolosi,-3.36856,36.68173,Shukrani Saccos,07/11/2009,,,,,,,
Kagera,Karagwe,Kayanga,-1.5359,31.15347,Shuza Care Ltd,13/05/2012,,,,,,,
Ruvuma,Songea Urban,Songea Mjini,-10.67505,35.65164,Sido Saccos,17/11/2013,,,,,,,
Manyara,Babati,Ufana,-4.20483,35.73497,Sido Saccos,24/07/2009,,,,,,,
Iringa,Iringa Urban,Gangilonga,-7.77577,35.69877,Sifa Saccos Limited,03/03/2003,Yes,,Yes,,,,
Kilimanjaro,Moshi Rural,Old Moshi East,-3.35471,37.33848,Sifuni Choir Saccos (Kkkt),03/05/2012,,,,,,,
Tabora,Tabora Urban,Cheyo,-5.03506,32.81997,Sima Sacco,13/09/2009,,,,,,,
Singida,Singida Rural,Mtinko,-4.55191,34.84284,Simai Saccos Ltd,15/06/2012,Yes,,Yes,,,,
Tabora,Tabora Urban,Chemchem,-5.02711,32.79514,Simba Fitness Sacco,09/04/2013,,,,,,,
Tabora,Tabora Urban,Ipuli,-5.0303,32.81603,Simea,16/07/2004,Yes,,Yes,,,,
Dar es Salaam,Kinondoni,Magomeni,-6.80578,39.25576,Simka General Credits Co Ltd,01/05/2009,Yes,Yes,Yes,,Yes,,
Arusha,Arumeru,Makiba,-3.37018,36.69464,Singisi Saccos,01/10/2006,,,,,,,
Arusha,Arusha,Kati,-3.38246,36.70967,Sisi Kwa Sisi Saccos,13/07/2009,,,,,,,
Singida,Singida Rural,Siuyu,-4.90046,34.87406,Siuyu Saccos Ltd,28/07/2004,,,,,,,
Mwanza,Ilemela,Nyamanoro,-2.49267,32.90941,Skrepa Saccos,16/05/2012,,,,,,,
Singida,Singida Urban,Ipembe,-4.82096,34.74939,Smcows Saccos Ltd,20/04/2005,,,,,,,
Dodoma,Dodoma Urban,Viwandani,-6.18128,35.74795,Soko Kuu Majengo Saccos,21/05/2003,,,,,,,
Mbeya,Rungwe,Bulyaga,-9.25406,33.64353,Songambele Saccos,17/02/1983,,,,,,,
Ruvuma,Songea Urban,Bomba Mbili,-10.66228,35.65067,Songea District Council Saccos,07/01/1985,,,,,,,
Ruvuma,Songea Urban,Majengo,-10.679,35.64432,Songea Municipal Council Saccos,05/11/1988,,,,,,,
Ruvuma,Songea Urban,Songea Mjini,-10.67699,35.65112,Songea Rural Teacher Saccos,17/11/2013,,,,,,,
Ruvuma,Songea Urban,Songea Mjini,-10.67929,35.65196,Songea Urban Teachers Saccos,17/11/2013,,,,,,,
Dodoma,Kondoa,Chandama,-5.22502,36.16085,Soya Saccos,16/11/2006,,,,,,,
Kilimanjaro,Rombo,Kitirima Kingachi,-3.35054,37.34232,St Paul Choir Saccos,05/09/2010,,,,,,,
Tabora,Tabora Urban,Cheyo,-5.03518,32.8198,Stan Saccos,09/05/2013,,,,,,,
Arusha,Arumeru,Bangata,-3.3669,36.68206,Subamo Women,23/11/2003,,,,,,,
Arusha,Arusha,Kati,-3.37703,36.68682,Subamo Women Saccos,03/10/2002,,,,,,,
Tabora,Tabora Urban,Kanyenye,-5.01897,32.80474,Suli,22/11/2008,,,,,,,
Tabora,Tabora Urban,Kitete,-5.03461,32.81872,Suma,15/06/2004,,,,,,,
Mbeya,Rungwe,Suma,-9.2093,33.71443,Suma Saccos,12/05/2012,Yes,,Yes,,,,
Rukwa,Sumbawanga Urban,Ntendo,-7.95754,31.611,Sumbawanga Roman Catholic Saccos,08/06/2012,,,,,,,
Rukwa,Sumbawanga Urban,Katandala,-7.9594,31.61605,Sumbawanga Woman Saccos(Suwosa),26/05/2005,,,,,,,
Arusha,Arumeru,Leguruki,-3.37313,36.68859,Sundip Saccos,01/01/2007,,,,,,,
Arusha,Arusha,Engutoto,-3.41279,36.70687,Sunflag Saccos,01/01/2007,,,,,,,
Arusha,Arusha,Kaloleni,-3.36537,36.68485,Superio Finacial Solution,03/01/2014,,,,,,,
Arusha,Arumeru,Nkoanrua,-3.36173,36.67006,Superior Saccos,27/11/2006,,,,,,,
Tabora,Tabora Urban,Cheyo,-5.03502,32.82004,Survivor,20/02/2013,Yes,,Yes,,,,
Rukwa,Sumbawanga Urban,Katandala,-7.96016,31.61434,Suwa Saccos,25/01/2011,,,,,,,
Tabora,Tabora Urban,Cheyo,-5.0229,32.80912,Tabasam Project,01/04/2004,,,,,,,
Tabora,Tabora Urban,Itetemia,-5.02108,32.80612,Tabea,10/12/2009,Yes,Yes,Yes,,Yes,,
Tabora,Tabora Urban,Chemchem,-5.02089,32.80637,Tabora Chemchem Sacco,12/09/2006,,,,,,,
Tabora,Tabora Urban,Kanyenye,-5.02451,32.81049,Tabora Rural Teachers,14/10/2004,,,,,,,
Shinyanga,Kahama,Nyihogo,-3.83446,32.59673,Tacoga Saccos,18/10/2002,,,,,,,
Kagera,Bukoba Urban,Birere,-1.32807,31.81222,Tadepa Saccos,02/04/2013,,,,,,,
Arusha,Arusha,Levolosi,-3.37335,36.69702,Taha Worker Saccos,10/12/2010,,,,,,,
Dar es Salaam,Ilala,Segerea,-6.82566,39.20097,Tajirika Saccos,16/12/2006,,,,,,,
Manyara,Hanang,Bassotu,-4.37324,35.07397,Takauma Saccos,24/10/2007,,,,,,,
Mbeya,Kyela,Ikama,-9.49892,33.87936,Talatala Saccos,01/06/2009,,,,,,,
Tabora,Tabora Urban,Kanyenye,-5.02096,32.80613,Tamea,06/07/2009,,,,,,,
Tabora,Tabora Urban,Kanyenye,-5.023,32.81385,Tameka,12/03/2009,,,,,,,
Arusha,Arusha,Kati,-3.36731,36.68487,Tamofa Saccos,10/06/1997,,,,,,,
Dodoma,Kondoa,Kondoa Mjini,-4.90231,35.77771,Tampro Saccos Ltd,08/03/2013,,,,,,,
Arusha,Arumeru,Kimnyaki,-3.39882,36.71071,Tanalec Saccos,21/11/2007,,,,,,,
Dar es Salaam,Kinondoni,Tandale,-6.7963,39.23771,Tanda Saccos Ltd,08/10/2011,Yes,Yes,Yes,,,,
Dar es Salaam,Kinondoni,Manzese,-6.79861,39.22972,Tandale Sacco,08/03/2011,Yes,Yes,Yes,,,,
Dar es Salaam,Temeke,Yombo Vituka,-6.8922,39.2364,Tandale Saccos,09/10/2011,Yes,,Yes,,,,
Tabora,Tabora Urban,Cheyo,-5.03512,32.82011,Tanesa,17/03/2012,,,,,,,
Arusha,Arusha,Levolosi,-3.37421,36.68484,Tanfoam Saccos,05/10/1999,,,,,,,
Ruvuma,Mbinga,Myangayanga,-10.94807,34.94719,Tanga Saccos Reg 474,25/02/2001,,,,,,,
Ruvuma,Songea Urban,Mshangano,-10.5555,35.67015,Tanga Saccoss Ang Group Tumain,06/04/2007,,,,,,,
Tabora,Tabora Urban,Cheyo,-5.03476,32.81965,Tangwu,21/09/2003,,,,,,,
Arusha,Arusha,Kati,-3.37114,36.69455,Tanzanite Mining Saccos,15/02/2004,,,,,,,
Arusha,Monduli,Engaruka,-3.37065,36.68067,Tarangire Tree Top Workers,13/09/2002,,,,,,,
Rukwa,Sumbawanga Urban,Mazwi,-7.95982,31.6099,Taru Saccos,20/02/2013,,,,,,,
Tabora,Igunga,Igunga,-4.29776,33.87636,Tasaf,05/08/2004,Yes,Yes,Yes,,Yes,,
Tabora,Tabora Urban,Kanyenye,-5.02935,32.80799,Taseu,10/08/2006,,,,,,,
Arusha,Arumeru,Kikwe,-3.37154,36.68297,Taso Northen Zone Saccos,05/11/2012,,,,,,,
Arusha,Arusha,Kati,-3.37,36.69517,Taswa Saccos,13/02/2010,,,,,,,
Arusha,Arusha,Kati,-3.36969,36.69551,Taugwe Saccos,24/11/2006,,,,,,,
Mbeya,Mbeya Urban,Iyunga,-8.92894,33.41569,Tazara Mbeya Savings Aand Credr Cooperative,20/10/1994,,,,,,,
Iringa,Njombe,Makambako,-8.84507,34.82309,Tazara Saccos Makambaku,05/05/2002,,,,,,,
Arusha,Karatu,Karatu,-3.34151,35.6751,Tccia (Karatu Private Sector) Saccos,15/04/2006,,,,,,,
Mbeya,Mbarali,Rujewa,-8.70347,34.37752,Tccia Mbalali Saccos Ltd,03/07/1978,,,,,,,
Mbeya,Mbeya Urban,Ghana (Mbeya ward),-8.89486,33.44169,Tccia Mbeya Saccos,22/02/2008,Yes,,Yes,,Yes,,
Manyara,Mbulu,Mbulu Mjini,-3.85521,35.54435,Tccia Mbulu Saccos,04/11/2007,,,,,,,
Arusha,Arusha,Kati,-3.3742,36.68852,Tccia Saccos,13/10/2007,,,,,,,
Rukwa,Sumbawanga Urban,Katandala,-7.96364,31.61419,Tccia Saccos Ltd Rukwa Branch,12/02/2014,,,,,,,
Mbeya,Mbarali,Rujewa,-8.70344,34.37766,Tccia Saccos Mbarali,16/05/2006,,,,,,,
Mbeya,Chunya,Itewe,-8.52666,33.42332,Teachers Saccos,21/06/2002,,,,,,,
Mbeya,Mbeya Urban,Sisimba,-8.89396,33.43987,Teachers Saccos Mbeya,18/02/2009,,,,,,,
Tabora,Tabora Urban,Kiloleni,-5.00067,32.81133,Tegemeo,05/02/2009,,,,,,,
Kagera,Karagwe,Bugene,-1.57031,31.14954,Tegemeo Saccos Ltd,09/06/2012,,,,,,,
Tabora,Tabora Urban,Tambukareli,-5.02102,32.80615,Tekul,04/10/1999,,,,,,,
Tabora,Tabora Urban,Kanyenye,-5.03348,32.81953,Tekus Saccos,17/11/2006,,,,,,,
Dar es Salaam,Ilala,Tabata,-6.82605,39.19472,Tembo Mkwaza,16/10/2007,,,,,,,
Arusha,Arusha,Kati,-3.37488,36.68453,Temdo Saccos,21/04/2001,,,,,,,
Dar es Salaam,Temeke,Keko,-6.84526,39.27247,Temeke Youth Saccos,28/04/2012,,,,,,,
Tabora,Tabora Urban,Kitete,-5.03363,32.81961,Temi,15/08/2009,,,,,,,
Dodoma,Dodoma Urban,Majengo,-6.17886,35.74226,Tempro Saccos Ltd,09/03/2010,,,,,,,
Mbeya,Kyela,Kajunjumele,-9.54102,33.88737,Tenende Saccos,31/01/2014,,,,,,,
Tabora,Tabora Urban,Gongoni,-5.01621,32.81339,Tengeru,09/05/2002,,,,,,,
Arusha,Arumeru,Akheri,-3.37447,36.78664,Tengeru Market Saccos,15/04/2011,,,,,,,
Tabora,Tabora Urban,Kanyenye,-5.02322,32.81356,Tepa Sacco,19/03/2006,,,,,,,
Dar es Salaam,Temeke,Temeke,-6.85889,39.26199,Tewo Saccos,05/06/2005,,,,,,,
Arusha,Arumeru,Akheri,-3.37383,36.78635,Tikundane Saccos,06/02/2007,,,,,,,
Manyara,Mbulu,Tlawi,-3.90787,35.47535,Tlawi Saccos,09/10/2010,,,,,,,
Tabora,Tabora Urban,Itonjanda,-5.02119,32.80405,Tobacco Sacco,25/06/2006,,,,,,,
Tabora,Tabora Urban,Cheyo,-5.03444,32.82666,Total Land Care,20/09/2003,,,,,,,
Tabora,Tabora Urban,Kanyenye,-5.02302,32.81102,Town Centre Sacco,08/10/2003,Yes,Yes,Yes,,,,
Kilimanjaro,Moshi Rural,Arusha Chini,-3.5339,37.32712,Tpc Saccos,01/01/1970,,,,,,,
Arusha,Monduli,Kitumbeine,-3.29762,36.44558,Tra Saccos,23/12/2010,,,,,,,
Arusha,Arusha,Kati,-3.36907,36.69305,Tra Staff Saccos,07/11/2006,,,,,,,
Tabora,Tabora Urban,Kanyenye,-5.01911,32.80484,Transit,19/09/2009,,,,,,,
Tabora,Tabora Urban,Kanyenye,-5.02354,32.80962,Treasure,03/08/2009,,,,,,,
Arusha,Arusha,Kati,-3.37184,36.69477,Ttcl Saccos,01/11/2011,Yes,,,,,,
Dar es Salaam,Temeke,Toangoma,-6.94293,39.27824,Tuanze Saccos,28/06/2010,,,,,,,
Rukwa,Sumbawanga Urban,Mollo,-7.96314,31.6222,Tuavoane Saccos,25/09/1997,,,,,,,
Tabora,Tabora Urban,Cheyo,-5.02405,32.81151,Tuico,05/01/2003,,,,,,,
Rukwa,Sumbawanga Urban,Katandala,-7.96353,31.62213,Tuinuane Saccos,22/05/2013,,,,,,,
Mbeya,Mbeya Urban,Isyesye,-8.90057,33.50242,Tuinuane Sccos,07/08/2012,,,,,,,
Mwanza,Nyamagana,Nyamagana,-2.52239,32.90181,Tujijenge Tanzania Ltd,10/01/2011,,,,,,,
Kilimanjaro,Mwanga,Kifula,-3.63328,37.66879,Tujikomboe Saccos,14/10/2002,Yes,Yes,,,,,
Tabora,Tabora Urban,Cheyo,-5.03268,32.81882,Tujitegemee Project,17/04/2007,,,,,,,
Shinyanga,Bukombe,Ushirombo,-3.46477,31.89563,Tukamuane Saccos,10/02/2011,,,,,,,
Shinyanga,Bukombe,Ushirombo,-3.46628,31.90088,Tukombone Saccos,09/09/2010,,,,,,,
Mbeya,Rungwe,Bulyaga,-9.27429,33.64779,Tukuyu Ttc Saccos,25/02/1990,,,,,,,
Tabora,Tabora Urban,Cheyo,-5.03512,32.81991,Tukuza,14/10/2008,,,,,,,
Shinyanga,Bukombe,Ushirombo,-3.46877,31.89818,Tukwamuane Saccos,17/04/2006,,,,,,,
Dar es Salaam,Temeke,Kigamboni,-6.8226,39.32078,Tulemane Saccos Limited Reg Drs 1078,21/01/2014,,,,,,,
Mbeya,Rungwe,Lwangwa,-9.26915,33.81288,Tulobwike Saccos,15/08/2010,Yes,,Yes,,,,
Dodoma,Mpwapwa,Mpwapwa Mjini,-6.34525,36.48644,Tumain Credit Saccos,20/05/2009,,,,,,,
Manyara,Mbulu,Mbulu Mjini,-3.85561,35.54245,Tumain Kkkt Saccos,01/11/2007,,,,,,,
Tabora,Nzega,Nzega Mjini,-4.21506,33.18394,Tumain Sacco,23/03/2012,Yes,Yes,Yes,,Yes,,
Arusha,Arusha,Kati,-3.37023,36.68758,Tumain Saccos,04/11/1990,,,,,,,
Arusha,Karatu,Karatu,-3.33118,35.66623,Tumaini (Ffs) Saccos Ltd,22/01/2007,,,,,,,
Kagera,Bukoba Rural,Ruhunga,-1.20847,31.40865,Tumaini Missenyi Saccos Ltd,09/02/2007,Yes,,,,Yes,,
Arusha,Arusha,Kati,-3.3655,36.69788,Tumaini Saccos,05/09/1990,,,,,,,
Shinyanga,Kahama,Kahama Mjini,-3.83561,32.59542,Tumainikina Mama Saccos,10/05/2007,,,,,,,
Tabora,Tabora Urban,Tumbi,-5.07302,32.69208,Tumbi Sacco,28/07/2006,,,,,,,
Kagera,Bukoba Urban,Hamgende,-1.32867,31.80674,Tunakopesha Credit Centre,14/04/2013,,,,,,,
Shinyanga,Bukombe,Ushirombo,-3.47182,31.90184,Tunakopesha Saccos,20/10/2010,,,,,,,
Shinyanga,Kahama,Bugarama,-3.29475,32.40513,Tunakosha Saccos,26/05/2007,,,,,,,
Pwani,Kisarawe,Kisarawe,-6.90631,39.07409,Tunda Saccos Ltd,04/02/2005,,,,,,,
Morogoro,Mvomero,Mtibwa,-6.14028,37.63795,Tursacos,15/02/2002,,,,,,,
Tabora,Tabora Urban,Tambukareli,-5.01604,32.81336,Tusa Organization,19/05/2004,,,,,,,
Tabora,Tabora Urban,Gongoni,-5.01914,32.80483,Tutetee Wanawake,21/07/2011,,,,,,,
Kagera,Karagwe,Kayanga,-1.53416,31.15489,Tuungane Saccos Ltd,02/05/2012,,,,,,,
Tabora,Tabora Urban,Kanyenye,-5.02336,32.81008,Tuwajibike Sacco,26/05/2008,,,,,,,
Kagera,Karagwe,Kayanga,-1.54139,31.15444,Tuwaka Saccos Ltd,16/04/2002,,,,,,,
Tabora,Tabora Urban,Isevya,-5.01663,32.81251,Tuwasa Saccos,31/12/2024,,,,,,,
Rukwa,Mpanda,Katumba,-7.96133,31.61016,Twavwanaje Saccos Ltd,12/02/2012,,,,,,,
Kagera,Bukoba Urban,Buhende,-1.28039,31.81648,Tweyabe Kyasha Saccos Ltd,16/05/2012,Yes,,Yes,,,,
Arusha,Arusha,Kati,-3.36446,36.68394,Tweyambe Saccos,28/11/1997,,,,,,,
Mara,Musoma Urban,Nyasho,-1.28016,31.81749,Tweyambe Saccos Ltd,19/04/1993,Yes,,Yes,,,,
Kagera,Muleba,Ijumbi,-1.7224,31.63297,Tweyememu Ijumbi Saccos Ltd,01/03/2011,,,,,,,
Arusha,Arusha,Kati,-3.37335,36.6939,Uamke Elelai Saccos,28/11/2007,,,,,,,
Kilimanjaro,Moshi Urban,Kiboriloni,-3.33478,37.36975,Uamkki Saccos Ltd,26/08/2005,,,,,,,
Mbeya,Mbarali,Ubaruku,-8.67679,34.30681,Ubaruku Saccos,12/04/1994,,,,,,,
Kilimanjaro,Rombo,Ubetu Kahe,-3.35587,37.34032,Ubetu Saccos (Dairy),18/01/2012,,,,,,,
Mbeya,Mbozi,Msia,-9.11137,32.93569,Uchenjezya Saccos,23/05/2002,,,,,,,
Tabora,Tabora Urban,Kitete,-5.03459,32.81867,Uchumi Foundatio,18/11/2007,Yes,Yes,Yes,,Yes,,
Shinyanga,Kahama,Kahama Mjini,-3.83041,32.60429,Udapi Kahama Saccos,19/07/2010,Yes,,Yes,,,,
Arusha,Arusha,Kati,-3.37944,36.6921,Udea Saccos,06/01/2006,,,,,,,
Arusha,Arusha,Kati,-3.37088,36.696,Udea Saccos,12/11/2006,,,,,,,
Morogoro,Kilombero,Kidatu,-7.67647,36.97066,Udzungwa Saccos,14/12/2000,,,,,,,
Dodoma,Kongwa,Ugogoni,-6.19671,36.42266,Ugogoni Saccos,13/04/2006,,,,,,,
Arusha,Arusha,Kati,-3.36876,36.695,Uhamiaji Saccos,05/08/2000,,,,,,,
Kilimanjaro,Rombo,Mrao Keryo,-3.29354,37.49407,Uhuru Group Saccos,18/10/2009,,,,,,,
Mara,Musoma Urban,Iringo,-1.49911,33.80416,Uhuru Saccos,23/11/2012,,,,,,,
Tabora,Tabora Urban,Kanyenye,-5.01912,32.81007,Ujamaa Foundation,07/09/2011,,,,,,,
Singida,Iramba,Kinampanda,-4.39216,34.52625,Ujamaa Saccos,28/03/2009,,,,,,,
Mara,Musoma Rural,Kukirango,-1.76423,33.85397,Ujamaa Saccos,12/11/2000,Yes,,Yes,,Yes,,
Shinyanga,Bukombe,Ushirombo,-3.4662,31.88914,Ujasiliamali 'Ari Mpya',25/10/2007,,,,,,,
Mara,Bunda,Bunda,-2.10464,33.08803,Ukerewe Saccos,25/10/2010,,,,,,,
Tabora,Tabora Urban,Ipuli,-5.02961,32.8085,Ukimwi Prevention,15/04/2012,Yes,Yes,Yes,,,,
Rukwa,Sumbawanga Urban,Milanzi,-7.96159,31.62007,Ukombozi Ras Rukwa,01/08/2001,,,,,,,
Ruvuma,Songea Urban,Mshangano,-10.65035,35.64453,Ukombozi Juu - Kuweka Na Kukopa,10/12/2013,,,,,,,
Singida,Iramba,Ulemo,-4.41024,34.39808,Ukombozi Ulemo,18/06/1999,,,,,,,
Dar es Salaam,Ilala,Ukonga,-6.87867,39.1657,Ukonga Vicoba Saccos Limited,19/04/2013,,,,,,,
Dar es Salaam,Temeke,Tandika,-6.86641,39.26391,Ukotaf,10/12/2007,,,,,,,
Arusha,Arusha,Kati,-3.37493,36.68444,Uku Saccos,28/02/2002,,,,,,,
Dar es Salaam,Temeke,Mbagala,-6.91723,39.24966,Ukumbam Saccos,13/08/2006,,,,,,,
Mbeya,Chunya,Makongorosi,-8.41982,33.16026,Umaco Saccos Ltd,15/07/2007,,,,,,,
Mbeya,Kyela,Kyela Mjini,-9.60302,33.86326,Umaja Wa Ndugu Saccos,15/12/2006,,,,,,,
Arusha,Arusha,Kati,-3.36555,36.68406,Umatama Saccos,28/02/2005,,,,,,,
Arusha,Karatu,Karatu,-3.33122,35.66596,Umatu Saccos,02/06/2007,,,,,,,
Dar es Salaam,Temeke,Mbagala,-6.9038,39.2675,Umba Saccoss Ltd,23/11/2006,,,,,,,
Dar es Salaam,Temeke,Mbagala,-6.90484,39.26738,Umba Saccos,21/06/2009,,,,,,,
Dar es Salaam,Temeke,Mbagala,-6.93234,39.24457,Umma Group And Saccos,18/04/2008,,,,,,,
Dodoma,Kongwa,Kibaigwa,-6.07931,36.6455,Ummakisu Saccos,26/02/2002,,,,,,,
Kagera,Muleba,Muleba,-1.94738,31.51727,Umoja Bushege Saccos Ltd,05/01/2000,,,,,,,
Arusha,Arusha,Kati,-3.37123,36.69437,Umoja Group,14/10/2005,,,,,,,
Arusha,Arusha,Unga L.T.D.,-3.37854,36.69276,Umoja Group Saccos,06/11/2005,,,,,,,
Singida,Singida Urban,Mughanga,-4.81437,34.74962,Umoja Na Upendo Saccos Ltd,09/08/2000,,,,,,,
Ruvuma,Songea Urban,Matarawe,-10.65748,35.64297,Umoja Saccos,10/12/2013,,,,,,,
Ruvuma,Songea Urban,Mshangano,-10.65401,35.64938,Umoja Saccos,10/11/2007,,,,,,,
Mbeya,Mbeya Rural,Utengule Usongwe,-8.93519,33.35179,Umoja Saccos,20/04/2009,,,,,,,
Singida,Manyoni,Kilimatinde,-5.85296,34.96143,Umoja Saccos,13/04/2011,,,,,,,
Tanga,Kilindi,Songe,-5.58458,37.28279,Umoja Saccos,05/12/2007,,,,,,,
Manyara,Kiteto,Kibaya,-5.31494,36.56588,Umoja Saccos,26/10/2006,,,,,,,
Tabora,Tabora Urban,Kanyenye,-5.02291,32.80912,Umoja Saccos,13/07/2008,Yes,Yes,Yes,,,,
Tabora,Tabora Urban,Kanyenye,-5.02278,32.81388,Umoja Saccos,18/12/2011,Yes,Yes,Yes,,Yes,,
Shinyanga,Kahama,Kahama Mjini,-3.83097,32.60428,Umoja Saccos,04/09/2013,Yes,,Yes,,,,
Kilimanjaro,Moshi Urban,Msaranga,-3.35736,37.39657,Umoja Saccos,20/11/2005,,,,,,,
Kilimanjaro,Hai,Hai Mjini,-3.33614,37.14602,Umoja Saccos,15/08/2011,,,,,,,
Arusha,Ngorongoro,Orgosorok,-2.05446,35.62638,Umoja Saccos,30/11/1995,,,,,,,
Kagera,Muleba,Muleba,-1.84349,31.65479,Umoja Saccos,18/06/2012,,,,,,,
Kilimanjaro,Siha,Sanya juu,-3.35525,37.33056,Umoja Saccos,12/09/2012,,,,,,,
Mwanza,Ilemela,Igoma,-2.522,32.91118,Umoja Saccos Ltd,27/02/2013,,,,,,,
Tabora,Tabora Urban,Gongoni,-5.01606,32.81337,Umt,05/08/2005,,,,,,,
Mbeya,Mbeya Urban,Ilomba,-8.9147,33.47715,Undato Saccos,06/06/2002,,,,,,,
Tabora,Tabora Urban,Kanyenye,-5.02287,32.80914,Unyumbu Sacco,19/08/2005,,,,,,,
Mbeya,Kyela,Ipinda,-9.48361,33.87934,Upendo Group - Ipinda,04/04/2012,,,,,,,
Mbeya,Mbozi,Ihanda,-9.17167,32.87184,Upendo Ihanda Saccos Ltd,09/02/2007,,,,,,,
Tabora,Tabora Urban,Kanyenye,-5.02389,32.81027,Upendo Project,19/11/2009,Yes,Yes,Yes,,,,
Manyara,Kiteto,Kibaya,-5.31471,36.55979,Upendo Saccos,02/03/2013,,,,,,,
Dodoma,Kondoa,Mondo,-5.00357,35.9335,Upendo Saccos N0.9 Vikoba Mondo,31/10/2009,,,,,,,
Dodoma,Kondoa,Pahi,-4.71566,35.91536,Upendo Sacoss,07/01/2009,,,,,,,
Mbeya,Mbeya Urban,Sisimba,-8.89587,33.44098,Upimaji Saccos Ltd,28/08/1974,,,,,,,
Dar es Salaam,Temeke,Kurasini,-6.84849,39.28189,Ura Saccos,24/09/2010,,,,,,,
Shinyanga,Shinyanga Urban,Ngokolo,-3.66088,33.4307,Urafik Development,10/08/2011,,,,,,,
Dar es Salaam,Kinondoni,Manzese,-6.79675,39.22576,Urafiki Mitumba Saccoss Ltd,30/01/2010,Yes,Yes,Yes,,,,
Tabora,Urambo,Urambo,-5.07321,32.06959,Urambo Teachers,25/03/2002,,,,,,,
Mbeya,Mbarali,Chimala,-8.8576,34.01401,Usafilishaji Saccos,04/05/2002,,,,,,,
Arusha,Arumeru,Makiba,-3.36952,36.696,Usaki Saccos,02/11/2005,,,,,,,
Kilimanjaro,Moshi Rural,Marangu Magharibi,-3.33479,37.14685,Usawa Kilimanja (Tai Saccos),09/01/2000,Yes,,Yes,,,,
Kilimanjaro,Hai,Masama Magharibi,-3.33585,37.14711,Usawa Tai Saccos (Hai),05/03/2006,,,,,,,
Kilimanjaro,Rombo,Ushiri Ikuini,-3.18484,37.60327,Ushiri Ikuini Saccos,10/03/2005,Yes,,Yes,,,,
Kilimanjaro,Rombo,Ushiri Ikuini,-3.35393,37.33132,Ushiri Ikuini Women Saccos (Molases),18/03/2012,,,,,,,
Dodoma,Kondoa,Kwamtoro,-5.22575,35.42446,Ushirika Saccos Kwamtoro,12/07/2013,,,,,,,
Tabora,Tabora Urban,Chemchem,-5.0283,32.8017,Ushirika Wa Mungu,08/01/2011,,,,,,,
Mbeya,Mbeya Urban,Ruanda,-8.90945,33.46247,Ushirika Wa Ruanda,04/01/1996,Yes,,Yes,,,Yes,
Morogoro,Morogoro Urban,Sabasaba,-6.82445,37.65556,Ushirikiano Saccos,10/09/2009,,,,,,,
Singida,Iramba,Ndago,-4.58023,34.34953,Ushirikiano Saccos,15/11/2002,,,,,,,
Shinyanga,Bukombe,Ushirombo,-3.47008,31.89784,Ushirombo Saccos,15/10/2006,,,,,,,
Manyara,Hanang,Masakta,-4.29075,35.5507,Usomama Saccos Ltd,05/05/2006,Yes,,Yes,,,,
Arusha,Arusha,Kaloleni,-3.37841,36.69033,Utalii Saccos,05/11/2000,,,,,,,
Rukwa,Sumbawanga Urban,Katandala,-7.95934,31.61595,Utaybaa Saccos Ltd,05/10/2010,,,,,,,
Tabora,Nzega,Mogwa,-3.87048,33.19533,Utukufu Sacco,17/08/2012,,,,,,,
Arusha,Arusha,Engutoto,-3.41368,36.70996,Uvumilivu Saccos,11/01/2013,,,,,,,
Mbeya,Chunya,Mkwajuni,-8.44799,33.01268,Uwabiki Saccos Ltd,06/07/1997,,,,,,,
Mbeya,Mbeya Urban,Ruanda,-8.91046,33.46813,Uwahombe Reg. Mbr 78C,21/10/2011,,,,,,,
Tabora,Tabora Urban,Ipuli,-5.01601,32.8247,Uwai,10/11/2010,,,,,,,
Dar es Salaam,Kinondoni,Kimara,-6.78806,39.15706,Uwamaki Saccos,19/04/2007,,,,,,,
Shinyanga,Kahama,Nyihogo,-3.84521,32.60333,Uwaminyi Saccos,11/03/2013,,,,,,,
Arusha,Arusha,Levolosi,-3.37013,36.68592,Uwamo Saccos,19/12/2006,,,,,,,
Arusha,Arusha,Levolosi,-3.36714,36.71272,Uwamo Saccos,07/02/1995,,,,,,,
Kilimanjaro,Hai,Hai Mjini,-3.35255,37.34183,Uwamomasa Saccos,12/10/2010,,,,,,,
Kilimanjaro,Moshi Urban,Mawenzi,-3.353,37.33786,Uwamosa Saccos,12/08/1994,,,,,,,
Mbeya,Mbeya Urban,Uyole,-8.90046,33.54216,Uwamu Saccos,02/05/2003,,,,,,,
Mbeya,Rungwe,Bulyaga,-9.25663,33.64284,Uwandi Saccos,18/05/2006,,,,,,,
Mbeya,Mbeya Urban,Maanga,-8.90999,33.45808,Uwando Mbr 382 Maanga Branch,19/10/2012,,,,,,,
Mbeya,Mbeya Urban,Ruanda,-8.90562,33.4628,Uwandu Mbr 382,19/10/2012,,,,,,,
Mbeya,Mbeya Urban,Ilemi,-8.9019,33.46307,Uwarumbe Saccos Mr 771,04/04/2007,,,,,,,
Zanzibar,Zanzibar,Mwera,-6.16914,39.20099,Uwawim Saccos,11/07/2010,,,,,,,
Tabora,Tabora Urban,Isevya,-5.01578,32.81177,Uwepo Sacco,02/11/2010,,,,,,,
Arusha,Monduli,Longido,-2.73254,36.69537,Uwt Longido Saccos,10/01/2007,,,,,,,
Rukwa,Sumbawanga Urban,Katandala,-7.96323,31.62203,Uwwami Saccos,28/04/2001,,,,,,,
Dar es Salaam,Kinondoni,Makuburi,-6.7989,39.20704,Uyakode,25/02/2006,Yes,,Yes,,,,
Singida,Singida Rural,Ikungi+B2253,-5.13613,34.77071,Uyanjo (Vicoba),20/05/2012,,,,,,,
Tabora,Tabora Urban,Isevya,-5.01786,32.81446,Uyui Foundation Saccos,05/09/2009,,,,,,,
Mwanza,Sengerema,Sengerema,-2.6513,32.6439,Uzinza Saccos Bank Ltd,27/02/2011,Yes,Yes,Yes,,Yes,,
Shinyanga,Bukombe,Ushirombo,-3.47144,31.90152,V Ision Fund,09/10/2013,,,,,,,
Kagera,Biharamulo,Biharamulo Mjini,-2.63452,31.31064,Vena Saccos Ltd,06/08/2012,,,,,,,
Dar es Salaam,Temeke,Keko,-6.83435,39.27097,Veta Saccos,15/04/2007,,,,,,,
Dar es Salaam,Ilala,Ilala,-6.82737,39.26492,Vibindo,23/04/2011,Yes,,Yes,,,,
Singida,Singida Urban,Majengo,-4.82942,34.7584,Vicks Saccos,30/03/2012,,,,,,,
Singida,Iramba,Ulemo,-4.39269,34.34368,Vicoba,25/07/2002,,,,,,,
Ruvuma,Songea Urban,Mshangano,-10.64768,35.64292,Vicoba Msamala B,05/10/2012,,,,,,,
Ruvuma,Mbinga,Kigonsera,-10.79711,35.08159,Vicoba Saccos,29/05/2013,,,,,,,
Ruvuma,Songea Urban,Mshangano,-10.61533,35.65517,Vicoba Saccos,13/11/2013,,,,,,,
Rukwa,Mpanda,Kashaulili,-7.95771,31.61481,Victor Asemblis Of God Saccos,05/07/2006,,,,,,,
Mwanza,Nyamagana,Nyamagana,-2.51812,32.89978,Victoria Saccos,17/01/2010,Yes,Yes,Yes,,Yes,,
Tabora,Uyui,Mabama,-5.02398,32.81124,Vijana Drug Abuse,26/08/2011,,,,,,,
Tabora,Tabora Urban,Kitete,-5.03335,32.81957,Vijana Elimu Sacco,11/10/2012,,,,,,,
Tabora,Nzega,Mogwa,-3.87073,33.19633,Vijana Moto,13/10/2011,Yes,,Yes,,,,
Tabora,Tabora Urban,Kanyenye,-5.02353,32.80735,Vijana Sacco,02/03/2009,,,,,,,
Tabora,Tabora Urban,Ipuli,-5.02047,32.82012,Vijana Sacco,22/12/2009,,,,,,,
Kagera,Biharamulo,Biharamulo Mjini,-2.63321,31.30986,Vijana Saccos Ltd,21/01/2013,,,,,,,
Shinyanga,Kahama,Bugarama,-3.2416,32.46304,Vijana Saccoss,30/07/2011,,,,,,,
Shinyanga,Bukombe,Ushirombo,-3.46617,31.889,Vikoba Nguvu Mpya,20/09/2006,,,,,,,
Dodoma,Dodoma Urban,Mtumba,-6.16733,35.89571,Vimi Saccos Ihumwa,01/03/2006,,,,,,,
Arusha,Arusha,Kati,-3.37133,36.69443,Vison Fund Tanzania,31/12/2010,Yes,,,,,,
Singida,Singida Urban,Majengo,-4.82303,34.75305,Volcano,15/04/2009,,,,,,,
Dodoma,Dodoma Urban,Mtumba,-6.13757,35.94152,Vumi Saccos,22/03/2006,,,,,,,
Tabora,Tabora Urban,Isevya,-5.01665,32.81267,Vumilia Sacco,08/09/2012,Yes,,Yes,,,,
Mbeya,Mbarali,Ubaruku,-8.67619,34.30731,Wabisunko,10/02/1997,,,,,,,
Mwanza,Ilemela,Igoma,-2.54368,32.97758,Waddock Saccos,19/01/2010,Yes,Yes,Yes,,,,
Arusha,Arusha,Kimandolu,-3.37954,36.70659,Waddokki Saccos,22/02/2012,Yes,Yes,Yes,Yes,,,
Mwanza,Nyamagana,Nyamagana,-2.51447,32.89884,Wadoki Saccos,11/02/2009,Yes,,Yes,,Yes,,
Mwanza,Ilemela,Kirumba,-2.50578,32.89883,Wadoki Saccos,11/07/2001,Yes,,Yes,,,,
Iringa,Njombe,Njombe Mjini,-9.33483,34.76737,Wafanyabiashara Saccos,19/10/2002,,,,,,,
Dodoma,Mpwapwa,Mpwapwa Mjini,-6.34662,36.48686,Wafugaji Saccos,22/07/2007,,,,,,,
Kilimanjaro,Rombo,Mamsera,-3.26385,37.60421,Wahee Saccos Mamsera,30/06/2004,Yes,,Yes,,,,
Iringa,Njombe,Mtwango,-8.8597,34.82445,Wajasiliamali Saccos,20/05/2009,,,,,,,
Tabora,Tabora Urban,Tumbi,-5.07291,32.69213,Wajasiliamali Tumbi,23/10/2004,,,,,,,
Arusha,Arusha,Kati,-3.37073,36.69397,Walemavu Saccos,15/10/2003,,,,,,,
Shinyanga,Kahama,Kahama Mjini,-3.82134,32.58918,Walimu Kahama Saccos,15/07/2003,,,,,,,
Shinyanga,Kahama,Kahama Mjini,-3.82445,32.58723,Walimu Kahama Saccos,05/04/2007,,,,,,,
Shinyanga,Kahama,Kahama Mjini,-3.82332,32.58856,Walimu Saccos,13/08/2007,,,,,,,
Lindi,Lindi Urban,Wireless,-10.0004,39.70988,Walisa,22/11/2010,,,,,,,
Arusha,Arusha,Ngarenaro,-3.3664,36.68466,Wam Arusha Group,27/10/2007,,,,,,,
Morogoro,Morogoro Urban,Uwanja wa Ndege,-6.82217,37.65278,Wama Saccos,23/01/2011,,,,,,,
Mbeya,Mbozi,Vwawa,-9.11212,32.93601,Wambo Saccos,30/06/1987,,,,,,,
Mbeya,Rungwe,Bagamoyo,-9.25381,33.64175,Wamojiku Saccos Tukuyu Branch,20/02/2006,,,,,,,
Dar es Salaam,Kinondoni,Manzese,-6.79829,39.23249,Wanama,04/04/2005,Yes,,,,,,
Kilimanjaro,Moshi Urban,Kilimanjaro,-3.35744,37.33547,Wanama Saccos,21/05/2011,,,,,,,
Dar es Salaam,Temeke,Tandika,-6.8727,39.25947,Wanawa Saccos,13/12/2006,Yes,,Yes,,,,
Arusha,Arumeru,Bangata,-3.37112,36.67845,Wanawake Bangata Saccos,21/10/2007,,,,,,,
Arusha,Arumeru,Bwawani,-3.36971,36.67747,Wanayanga Saccos,19/11/2007,,,,,,,
Kagera,Muleba,Muleba,-1.84952,31.65326,Wangubo Finance Company Micro Credit Ltd,28/08/2013,Yes,,Yes,,Yes,,
Arusha,Arusha,Kimandolu,-3.3843,36.71166,Wannama Saccos,24/10/2003,,,,,,,
Dar es Salaam,Ilala,Tabata,-6.82786,39.23047,Warch And Gard Saccos,02/02/2012,,,,,,,
Mbeya,Mbeya Rural,Iyunga Mapinduzi,-8.93841,33.35801,Wasamba Saccos Mbr 818,05/02/2014,,,,,,,
Mbeya,Mbozi,Vwawa,-8.90503,33.44342,Wat Saccos,17/04/2002,,,,,,,
Dar es Salaam,Kinondoni,Kinondoni,-6.78413,39.26374,Wat Saccos,07/04/2004,,,,,,,
Dar es Salaam,Kinondoni,Kijitonyama,-6.76818,39.23351,Wat Saccos,16/10/2006,,,,,,,
Mbeya,Mbozi,Vwawa,-9.11184,32.93587,Wat Saccos Mbozi Ltd Mbr 592,06/02/2011,,,,,,,
Mbeya,Rungwe,Bulyaga,-9.28884,33.65148,Watte Saccos Tukuyu Branch,20/02/1998,,,,,,,
Mbeya,Kyela,Kyela Mjini,-9.60593,33.86909,Waweko Teachers Saccos,15/10/1998,,,,,,,
Kilimanjaro,Moshi Urban,Longuo,-3.33566,37.3378,Wazalendo Saccos,05/10/1971,,,,,,,
Shinyanga,Bukombe,Masumbwe,-3.6479,32.16687,Wazazi Saccos,08/10/2010,,,,,,,
Manyara,Babati,Babati,-4.21688,35.71794,Wekeza Saccos,28/06/2002,,,,,,,
Kilimanjaro,Moshi Rural,Mamba Kusini,-3.35807,37.34248,Wembere Women Saccos,08/10/2010,,,,,,,
Tabora,Tabora Urban,Gongoni,-5.01666,32.81391,Wetco Ltd,23/07/2004,Yes,,Yes,,Yes,,
Tabora,Tabora Urban,Isevya,-5.01661,32.8137,Wetcu Sacco,10/12/1992,,,,,,,
Dar es Salaam,Temeke,Kigamboni,-6.82437,39.32506,Wezesha Maisha,31/12/2013,,,,,,,
Tabora,Nzega,Nzega Mjini,-4.21663,33.18306,Wito Wa Mungu Sacco,06/07/2005,,,,,,,
Mbeya,Mbozi,Vwawa,-9.1246,32.92007,Wiza Saccos,27/07/2011,,,,,,,
Tabora,Tabora Urban,Kanyenye,-5.02897,32.81547,Woman Foundation Ltd,18/06/2011,,,,,,,
Kilimanjaro,Mwanga,Kileo,-3.35002,37.32811,Women And Child Vision Saccos (Wochivi),04/10/2010,,,,,,,
Arusha,Karatu,Karatu,-3.34522,35.6712,Women Development Fund,21/01/1996,,,,,,,
Tabora,Tabora Urban,Ipuli,-5.02962,32.80851,Womens Power,26/03/2014,,,,,,,
Tabora,Tabora Urban,Kanyenye,-5.0239,32.8094,Yerumi Sacco,13/07/2006,,,,,,,
Arusha,Arusha,Kati,-3.37149,36.69353,Yeshua Saccos,16/09/2006,,,,,,,
Arusha,Arusha,Elerai,-3.37169,36.67754,Yesua Power Saccos,11/11/2010,,,,,,,
Tabora,Tabora Urban,Kanyenye,-5.02273,32.80905,Yoram,24/06/2010,,,,,,,
Tabora,Nzega,Mogwa,-3.87038,33.19637,Yoranda Foundation,15/11/2012,Yes,Yes,Yes,,Yes,,
Manyara,Babati,Babati,-4.21687,35.71791,Youth Development Funds,21/06/1996,,,,,,,
Dodoma,Kondoa,Chemba,-3.34509,35.67112,Youth Development Saccos,17/04/1998,,,,,,,
Kilimanjaro,Moshi Rural,Arusha Chini,-3.36169,36.69649,Youth Saccos Carpentry Centre By Ndesamburo,10/08/2012,,,,,,,
Kilimanjaro,Hai,Machame Magharibi,-3.35137,37.3414,Youth With A Mission Saccos,16/05/2012,,,,,,,
Kilimanjaro,Hai,Hai Mjini,-3.34498,37.12373,Youth With A Mission Saccos,05/03/2012,,,,,,,
Tabora,Tabora Urban,Cheyo,-5.03469,32.81963,Yuba Sacco,22/07/2008,,,,,,,
Mara,Serengeti,Ring'wani,-1.67825,33.94005,Zanaki Saccos,06/10/2007,,,,,,,
Ruvuma,Songea Urban,Mshangano,-10.65054,35.64938,Zionane Saccos,10/11/2011,,,,,,,
Tabora,Tabora Urban,Gongoni,-5.01614,32.80554,Zumeo,27/07/2011,Yes,Yes,Yes,,Yes,,